{"type":"FeatureCollection","name":"authorized","crs":{"type":"name","properties":{"name":"urn:ogc:def:crs:OGC:1.3:CRS84"}},"features":[{"type":"Feature","properties":{"case_serial":"NVNV105772598","mlrs_id":"NVNV105772598","legacy_serial":null,"case_name":null,"disposition":"Authorized","production_status":"Non-Producing","acres":783.52,"effective_date":"2022-10-01","expiration_date":"2032-09-30","case_type":"GEOTHERMAL COMPETITIVE LEASE POST 2005","case_type_nr":"322200","admin_state":"NV","geo_state":"NV","layer":"authorized"},"geometry":{"type":"Polygon","coordinates":[[[-117.84168,39.99515],[-117.84197,39.99881],[-117.84675,39.99884],[-117.85154,39.99886],[-117.8563,39.99888],[-117.86106,39.9989],[-117.86579,39.9989],[-117.87001,39.99891],[-117.86979,39.99527],[-117.86956,39.99163],[-117.86933,39.988],[-117.86911,39.98436],[-117.86479,39.98434],[-117.85999,39.98431],[-117.8552,39.98428],[-117.85041,39.98425],[-117.85069,39.9879],[-117.85097,39.99155],[-117.84618,39.99153],[-117.8414,39.9915],[-117.84168,39.99515]]]}},{"type":"Feature","properties":{"case_serial":"NVNV105772595","mlrs_id":"NVNV105772595","legacy_serial":null,"case_name":null,"disposition":"Authorized","production_status":"Non-Producing","acres":2400.0,"effective_date":"2022-10-01","expiration_date":"2999-12-31","case_type":"GEOTHERMAL COMPETITIVE LEASE POST 2005","case_type_nr":"322200","admin_state":"NV","geo_state":"NV","layer":"authorized"},"geometry":{"type":"MultiPolygon","coordinates":[[[[-117.92724,39.94144],[-117.9272,39.94507],[-117.92717,39.94869],[-117.92713,39.95232],[-117.92709,39.95594],[-117.93191,39.95601],[-117.93672,39.95608],[-117.94154,39.95615],[-117.94635,39.95621],[-117.94637,39.9526],[-117.9464,39.94899],[-117.9512,39.94906],[-117.956,39.94913],[-117.95603,39.94553],[-117.95607,39.94193],[-117.96089,39.94201],[-117.9657,39.94209],[-117.97047,39.94217],[-117.97523,39.94224],[-117.9752,39.93862],[-117.97516,39.935],[-117.97513,39.93141],[-117.97509,39.92782],[-117.97035,39.92776],[-117.9656,39.92769],[-117.96082,39.92759],[-117.95604,39.92749],[-117.95125,39.92739],[-117.94647,39.92728],[-117.94646,39.9309],[-117.94646,39.93452],[-117.94645,39.93814],[-117.94644,39.94176],[-117.94164,39.94168],[-117.93684,39.9416],[-117.93204,39.94152],[-117.92724,39.94144]]],[[[-117.92726,39.93781],[-117.92728,39.93419],[-117.9273,39.93056],[-117.92732,39.92693],[-117.92254,39.92685],[-117.91776,39.92677],[-117.91299,39.92669],[-117.90821,39.92661],[-117.90818,39.93025],[-117.90815,39.93388],[-117.90812,39.93751],[-117.90809,39.94114],[-117.91287,39.94122],[-117.91766,39.94129],[-117.92245,39.94137],[-117.92724,39.94144],[-117.92726,39.93781]]]]}},{"type":"Feature","properties":{"case_serial":"NVN-083934","mlrs_id":"NVNV105382818","legacy_serial":"NVN-083934","case_name":null,"disposition":"Authorized","production_status":"Non-Producing","acres":2038.32,"effective_date":"2007-10-01","expiration_date":null,"case_type":"GEOTHERMAL COMPETITIVE LEASE POST 2005","case_type_nr":"322200","admin_state":"NV","geo_state":"NV","layer":"authorized"},"geometry":{"type":"MultiPolygon","coordinates":[[[[-118.04656,39.80096],[-118.05132,39.80099],[-118.05138,39.79749],[-118.04661,39.79739],[-118.04184,39.7973],[-118.0371,39.79719],[-118.03236,39.79708],[-118.02762,39.79697],[-118.02288,39.79686],[-118.01797,39.79674],[-118.01305,39.79663],[-118.00814,39.79651],[-118.00322,39.79639],[-117.99833,39.79628],[-117.99344,39.79616],[-117.98855,39.79605],[-117.98366,39.79593],[-117.98364,39.79961],[-117.98361,39.8033],[-117.98359,39.80698],[-117.98356,39.81066],[-117.98847,39.81078],[-117.99338,39.8109],[-117.99829,39.81102],[-118.00319,39.81114],[-118.0081,39.81125],[-118.01053,39.81131],[-118.01301,39.81137],[-118.01792,39.81149],[-118.02283,39.8116],[-118.02754,39.81164],[-118.02756,39.80788],[-118.02758,39.80425],[-118.03231,39.80435],[-118.03703,39.80445],[-118.04176,39.80455],[-118.04652,39.80453],[-118.04656,39.80096]]],[[[-118.06072,39.78605],[-118.06077,39.78973],[-118.06083,39.79341],[-118.06559,39.79346],[-118.06555,39.7898],[-118.06551,39.78614],[-118.06547,39.78248],[-118.06066,39.78237],[-118.06072,39.78605]]],[[[-118.07509,39.78631],[-118.07988,39.7864],[-118.07988,39.7828],[-118.07508,39.7827],[-118.07027,39.78259],[-118.0703,39.78622],[-118.07032,39.78986],[-118.0751,39.78993],[-118.07509,39.78631]]]]}},{"type":"Feature","properties":{"case_serial":"NVN-083937","mlrs_id":"NVNV105383823","legacy_serial":"NVN-083937","case_name":null,"disposition":"Authorized","production_status":"Non-Producing","acres":1640.0,"effective_date":"2007-10-01","expiration_date":null,"case_type":"GEOTHERMAL COMPETITIVE LEASE POST 2005","case_type_nr":"322200","admin_state":"NV","geo_state":"NV","layer":"authorized"},"geometry":{"type":"Polygon","coordinates":[[[-118.00708,39.84018],[-118.0118,39.84023],[-118.01652,39.84028],[-118.02124,39.84033],[-118.02133,39.83669],[-118.02142,39.83305],[-118.02151,39.8294],[-118.0216,39.82576],[-118.02191,39.82222],[-118.02221,39.81868],[-118.02252,39.81514],[-118.02725,39.81519],[-118.02754,39.81164],[-118.02283,39.8116],[-118.01792,39.81149],[-118.01301,39.81137],[-118.01053,39.81131],[-118.0081,39.81125],[-118.00319,39.81114],[-117.99829,39.81102],[-117.99816,39.81463],[-117.99804,39.81823],[-117.99792,39.82185],[-117.99779,39.82546],[-117.99775,39.82912],[-117.9977,39.83277],[-117.99765,39.83643],[-117.9976,39.84009],[-118.00236,39.84013],[-118.00708,39.84018]],[[-118.0072,39.83288],[-118.01194,39.83293],[-118.01194,39.83293],[-118.0072,39.83288],[-118.0072,39.83288]]]}},{"type":"Feature","properties":{"case_serial":"NVN-085715","mlrs_id":"NVNV105680009","legacy_serial":"NVN-085715","case_name":null,"disposition":"Authorized","production_status":"Non-Producing","acres":920.0,"effective_date":"2008-09-01","expiration_date":"2028-08-31","case_type":"GEOTHERMAL COMPETITIVE LEASE POST 2005","case_type_nr":"322200","admin_state":"NV","geo_state":"NV","layer":"authorized"},"geometry":{"type":"Polygon","coordinates":[[[-117.68784,39.65042],[-117.68309,39.65042],[-117.67839,39.65039],[-117.67368,39.65036],[-117.66897,39.65033],[-117.66426,39.6503],[-117.65952,39.65034],[-117.65479,39.65037],[-117.65005,39.6504],[-117.64531,39.65043],[-117.64532,39.65407],[-117.64533,39.6577],[-117.64534,39.66134],[-117.64535,39.66497],[-117.64536,39.66861],[-117.64537,39.67225],[-117.64538,39.67589],[-117.64539,39.67952],[-117.64541,39.68316],[-117.64542,39.6868],[-117.64548,39.69041],[-117.64555,39.69403],[-117.65025,39.69398],[-117.6502,39.69036],[-117.65015,39.68674],[-117.65013,39.68311],[-117.65485,39.68306],[-117.65469,39.67965],[-117.6594,39.67963],[-117.65945,39.67584],[-117.65473,39.67588],[-117.65477,39.67212],[-117.65949,39.67204],[-117.65945,39.67584],[-117.66416,39.67579],[-117.66421,39.67197],[-117.66893,39.67203],[-117.67365,39.6721],[-117.67372,39.66848],[-117.67378,39.66486],[-117.67851,39.66491],[-117.67848,39.66128],[-117.68319,39.66133],[-117.68789,39.66133],[-117.69259,39.66132],[-117.69729,39.66131],[-117.70199,39.6613],[-117.702,39.66493],[-117.7019,39.66856],[-117.7018,39.67218],[-117.7017,39.6758],[-117.70159,39.67942],[-117.70631,39.67941],[-117.71103,39.67941],[-117.71575,39.6794],[-117.71582,39.67577],[-117.71589,39.67215],[-117.71596,39.66853],[-117.71604,39.66491],[-117.71605,39.66129],[-117.71605,39.65767],[-117.71606,39.65405],[-117.71607,39.65042],[-117.71138,39.65041],[-117.70668,39.65041],[-117.70197,39.65041],[-117.69728,39.65041],[-117.69259,39.65041],[-117.68784,39.65042]],[[-117.66434,39.66475],[-117.66428,39.66836],[-117.65954,39.66842],[-117.65959,39.66481],[-117.66434,39.66475]]]}},{"type":"Feature","properties":{"case_serial":"NVN-086885","mlrs_id":"NVNV105384059","legacy_serial":"NVN-086885","case_name":null,"disposition":"Authorized","production_status":"Non-Producing","acres":80.0,"effective_date":"2009-09-01","expiration_date":null,"case_type":"GEOTHERMAL COMPETITIVE LEASE POST 2005","case_type_nr":"322200","admin_state":"NV","geo_state":"NV","layer":"authorized"},"geometry":{"type":"Polygon","coordinates":[[[-118.02142,39.83305],[-118.02618,39.83311],[-118.02628,39.82947],[-118.02638,39.82583],[-118.0216,39.82576],[-118.02151,39.8294],[-118.02142,39.83305]]]}},{"type":"Feature","properties":{"case_serial":"NVN-086890","mlrs_id":"NVNV105384064","legacy_serial":"NVN-086890","case_name":null,"disposition":"Authorized","production_status":"Non-Producing","acres":3840.0,"effective_date":"2009-09-01","expiration_date":"2032-04-30","case_type":"GEOTHERMAL COMPETITIVE LEASE POST 2005","case_type_nr":"322200","admin_state":"NV","geo_state":"NV","layer":"authorized"},"geometry":{"type":"Polygon","coordinates":[[[-118.07926,39.98873],[-118.07925,39.98508],[-118.07449,39.98512],[-118.06973,39.98516],[-118.06497,39.9852],[-118.06021,39.98524],[-118.06024,39.98887],[-118.06027,39.99249],[-118.0603,39.99611],[-118.06033,39.99974],[-118.05559,39.99975],[-118.05084,39.99977],[-118.0461,39.99978],[-118.04136,39.9998],[-118.04138,40.00342],[-118.0414,40.00704],[-118.04141,40.01066],[-118.04143,40.01428],[-118.0367,40.01428],[-118.03197,40.01429],[-118.02724,40.01429],[-118.02251,40.01429],[-118.02252,40.0179],[-118.02252,40.02152],[-118.02253,40.02514],[-118.02253,40.02875],[-118.02726,40.02876],[-118.03199,40.02876],[-118.03672,40.02876],[-118.04145,40.02876],[-118.04145,40.03239],[-118.04146,40.03601],[-118.04146,40.03964],[-118.04146,40.04326],[-118.0462,40.04327],[-118.05094,40.04327],[-118.05567,40.04327],[-118.06041,40.04327],[-118.0604,40.03964],[-118.0604,40.03601],[-118.06039,40.03238],[-118.06039,40.02875],[-118.06038,40.02513],[-118.06038,40.0215],[-118.06037,40.01787],[-118.06037,40.01425],[-118.0651,40.01424],[-118.06984,40.01423],[-118.07457,40.01422],[-118.07931,40.01422],[-118.0793,40.01058],[-118.07929,40.00694],[-118.07928,40.00331],[-118.07928,39.99967],[-118.07927,39.99603],[-118.07926,39.99238],[-118.07926,39.98873]]]}},{"type":"Feature","properties":{"case_serial":"NVN-086892","mlrs_id":"NVNV105384066","legacy_serial":"NVN-086892","case_name":null,"disposition":"Authorized","production_status":"Non-Producing","acres":640.0,"effective_date":"2009-09-01","expiration_date":"2031-05-31","case_type":"GEOTHERMAL COMPETITIVE LEASE POST 2005","case_type_nr":"322200","admin_state":"NV","geo_state":"NV","layer":"authorized"},"geometry":{"type":"Polygon","coordinates":[[[-117.93211,39.92702],[-117.92732,39.92693],[-117.9273,39.93056],[-117.92728,39.93419],[-117.92726,39.93781],[-117.92724,39.94144],[-117.93204,39.94152],[-117.93684,39.9416],[-117.94164,39.94168],[-117.94644,39.94176],[-117.94645,39.93814],[-117.94646,39.93452],[-117.94646,39.9309],[-117.94647,39.92728],[-117.94168,39.9272],[-117.93689,39.92711],[-117.93211,39.92702]]]}},{"type":"Feature","properties":{"case_serial":"NVN-088418","mlrs_id":"NVNV105683083","legacy_serial":"NVN-088418","case_name":null,"disposition":"Authorized","production_status":"Non-Producing","acres":1282.8,"effective_date":"2010-07-01","expiration_date":"2033-01-31","case_type":"GEOTHERMAL COMPETITIVE LEASE POST 2005","case_type_nr":"322200","admin_state":"NV","geo_state":"NV","layer":"authorized"},"geometry":{"type":"Polygon","coordinates":[[[-117.93711,40.07198],[-117.93768,40.07198],[-117.94313,40.07201],[-117.94674,40.07203],[-117.94711,40.07203],[-117.9479,40.07203],[-117.95253,40.07205],[-117.95554,40.07207],[-117.95605,40.07207],[-117.95654,40.07207],[-117.96192,40.0721],[-117.96584,40.07212],[-117.96597,40.07212],[-117.96673,40.07212],[-117.96661,40.0683],[-117.96661,40.06468],[-117.9666,40.06107],[-117.96659,40.05746],[-117.96188,40.05743],[-117.95718,40.0574],[-117.95248,40.05738],[-117.94777,40.05735],[-117.94307,40.05733],[-117.93836,40.0573],[-117.93365,40.05728],[-117.92894,40.05726],[-117.92897,40.06088],[-117.92901,40.0645],[-117.92902,40.06812],[-117.92906,40.07195],[-117.93374,40.07197],[-117.93665,40.07198],[-117.93711,40.07198]]]}},{"type":"Feature","properties":{"case_serial":"NVN-091823","mlrs_id":"NVNV105309522","legacy_serial":"NVN-091823","case_name":null,"disposition":"Authorized","production_status":"Non-Producing","acres":160.0,"effective_date":"2013-03-01","expiration_date":null,"case_type":"GEOTHERMAL COMPETITIVE LEASE POST 2005","case_type_nr":"322200","admin_state":"NV","geo_state":"NV","layer":"authorized"},"geometry":{"type":"MultiPolygon","coordinates":[[[[-118.09934,39.76793],[-118.09428,39.76817],[-118.08918,39.76841],[-118.08446,39.76841],[-118.07975,39.76842],[-118.07978,39.77201],[-118.07981,39.77561],[-118.07984,39.77921],[-118.07988,39.7828],[-118.08479,39.78273],[-118.08969,39.78266],[-118.0946,39.78259],[-118.09903,39.78253],[-118.09906,39.78136],[-118.09914,39.77886],[-118.09925,39.7752],[-118.09929,39.77157],[-118.09934,39.76793]]],[[[-118.03231,39.80435],[-118.02758,39.80425],[-118.02756,39.80788],[-118.03228,39.80798],[-118.03231,39.80435]]],[[[-118.05607,39.80088],[-118.05613,39.79729],[-118.05138,39.79749],[-118.05132,39.80099],[-118.05607,39.80088]]],[[[-118.05132,39.80099],[-118.04656,39.80096],[-118.04652,39.80453],[-118.05127,39.8045],[-118.05132,39.80099]]]]}},{"type":"Feature","properties":{"case_serial":"NVN-092479","mlrs_id":"NVNV105684274","legacy_serial":"NVN-092479","case_name":null,"disposition":"Authorized","production_status":"Non-Producing","acres":387.06,"effective_date":"2013-12-01","expiration_date":null,"case_type":"GEOTHERMAL COMPETITIVE LEASE POST 2005","case_type_nr":"322200","admin_state":"NV","geo_state":"NV","layer":"authorized"},"geometry":{"type":"Polygon","coordinates":[[[-118.09934,39.76793],[-118.09428,39.76817],[-118.08918,39.76841],[-118.08446,39.76841],[-118.07975,39.76842],[-118.07978,39.77201],[-118.07981,39.77561],[-118.07984,39.77921],[-118.07988,39.7828],[-118.07508,39.7827],[-118.07027,39.78259],[-118.06547,39.78248],[-118.06066,39.78237],[-118.06072,39.78605],[-118.06077,39.78973],[-118.06083,39.79341],[-118.06088,39.79709],[-118.06563,39.79711],[-118.07038,39.79714],[-118.07512,39.79716],[-118.07987,39.79718],[-118.08461,39.79716],[-118.08935,39.79715],[-118.0941,39.79713],[-118.09843,39.79712],[-118.09848,39.79595],[-118.09858,39.79347],[-118.09873,39.78982],[-118.09888,39.78617],[-118.09903,39.78253],[-118.09906,39.78136],[-118.09914,39.77886],[-118.09925,39.7752],[-118.09929,39.77157],[-118.09934,39.76793]]]}},{"type":"Feature","properties":{"case_serial":"NVN-092717","mlrs_id":"NVNV105379770","legacy_serial":"NVN-092717","case_name":null,"disposition":"Authorized","production_status":"Non-Producing","acres":40.0,"effective_date":"2014-12-01","expiration_date":"2024-11-30","case_type":"GEOTHERMAL COMPETITIVE LEASE POST 2005","case_type_nr":"322200","admin_state":"NV","geo_state":"NV","layer":"authorized"},"geometry":{"type":"Polygon","coordinates":[[[-118.08956,39.77903],[-118.08943,39.77541],[-118.08462,39.77551],[-118.0847,39.77912],[-118.08956,39.77903]]]}},{"type":"Feature","properties":{"case_serial":"NVN-094093","mlrs_id":"NVNV105377427","legacy_serial":"NVN-094093","case_name":null,"disposition":"Authorized","production_status":"Non-Producing","acres":2760.27,"effective_date":"2016-12-01","expiration_date":"2026-11-30","case_type":"GEOTHERMAL COMPETITIVE LEASE POST 2005","case_type_nr":"322200","admin_state":"NV","geo_state":"NV","layer":"authorized"},"geometry":{"type":"Polygon","coordinates":[[[-118.02083,39.86218],[-118.01614,39.86215],[-118.01145,39.86213],[-118.01614,39.86215],[-118.02083,39.86218],[-118.02093,39.85854],[-118.02102,39.8549],[-118.01631,39.85486],[-118.0116,39.85483],[-118.00689,39.85479],[-118.00694,39.85114],[-118.00698,39.84749],[-118.00227,39.84744],[-118.00698,39.84749],[-118.00703,39.84383],[-118.00708,39.84018],[-118.00236,39.84013],[-117.9976,39.84009],[-117.99285,39.84004],[-117.98809,39.84],[-117.98334,39.83996],[-117.98331,39.84362],[-117.98328,39.84729],[-117.98326,39.85096],[-117.98323,39.85462],[-117.98323,39.85829],[-117.98322,39.86195],[-117.98793,39.86198],[-117.98793,39.86198],[-117.98322,39.86195],[-117.98321,39.86562],[-117.98321,39.86928],[-117.98328,39.87294],[-117.98336,39.87661],[-117.98343,39.88027],[-117.98351,39.88393],[-117.98374,39.88775],[-117.98397,39.89156],[-117.98793,39.89152],[-117.99189,39.89147],[-117.99189,39.89147],[-117.98793,39.89152],[-117.98397,39.89156],[-117.98408,39.89528],[-117.98419,39.899],[-117.98777,39.89888],[-117.99135,39.89877],[-117.99617,39.89868],[-118.00098,39.89859],[-118.00104,39.895],[-118.00111,39.89136],[-118.00124,39.88771],[-118.00137,39.88406],[-118.00152,39.88039],[-118.00166,39.87672],[-118.00181,39.87305],[-118.00195,39.86939],[-118.00663,39.86941],[-118.0113,39.86943],[-118.01598,39.86944],[-118.02065,39.86946],[-118.02074,39.86582],[-118.02083,39.86218]],[[-117.99267,39.85835],[-117.98795,39.85832],[-117.99267,39.85835],[-117.99267,39.85835]],[[-117.99281,39.84371],[-117.99278,39.84737],[-117.99278,39.84737],[-117.99281,39.84371],[-117.99281,39.84371]]]}},{"type":"Feature","properties":{"case_serial":"NVN-094094","mlrs_id":"NVNV105378402","legacy_serial":"NVN-094094","case_name":null,"disposition":"Authorized","production_status":"Non-Producing","acres":640.0,"effective_date":"2016-12-01","expiration_date":"2026-11-30","case_type":"GEOTHERMAL COMPETITIVE LEASE POST 2005","case_type_nr":"322200","admin_state":"NV","geo_state":"NV","layer":"authorized"},"geometry":{"type":"Polygon","coordinates":[[[-117.9078,39.9593],[-117.9078,39.96294],[-117.9078,39.96658],[-117.90779,39.97022],[-117.91263,39.97027],[-117.91747,39.97033],[-117.92231,39.97039],[-117.92715,39.97045],[-117.92713,39.96682],[-117.92712,39.96319],[-117.9271,39.95957],[-117.92709,39.95594],[-117.92227,39.95587],[-117.91745,39.9558],[-117.91263,39.95573],[-117.90781,39.95567],[-117.9078,39.9593]]]}},{"type":"Feature","properties":{"case_serial":"NVN-095879","mlrs_id":"NVNV105692010","legacy_serial":"NVN-095879","case_name":null,"disposition":"Authorized","production_status":"Non-Producing","acres":149.53,"effective_date":"2017-11-01","expiration_date":null,"case_type":"GEOTHERMAL COMPETITIVE LEASE POST 2005","case_type_nr":"322200","admin_state":"NV","geo_state":"NV","layer":"authorized"},"geometry":{"type":"MultiPolygon","coordinates":[[[[-118.00111,39.89136],[-118.00589,39.89134],[-118.00598,39.88769],[-118.00608,39.88405],[-118.00137,39.88406],[-118.00124,39.88771],[-118.00111,39.89136]]],[[[-118.00098,39.89859],[-118.00577,39.89857],[-118.00583,39.89498],[-118.00104,39.895],[-118.00098,39.89859]]],[[[-118.00195,39.86939],[-118.00188,39.87122],[-118.00181,39.87305],[-118.00415,39.87306],[-118.00422,39.87123],[-118.00656,39.87124],[-118.00663,39.86941],[-118.00429,39.8694],[-118.00195,39.86939]]]]}},{"type":"Feature","properties":{"case_serial":"NVN-097285","mlrs_id":"NVNV105690181","legacy_serial":"NVN-097285","case_name":null,"disposition":"Authorized","production_status":"Non-Producing","acres":801.05,"effective_date":"2018-11-01","expiration_date":null,"case_type":"GEOTHERMAL COMPETITIVE LEASE POST 2005","case_type_nr":"322200","admin_state":"NV","geo_state":"NV","layer":"authorized"},"geometry":{"type":"MultiPolygon","coordinates":[[[[-118.02083,39.86218],[-118.01614,39.86215],[-118.01145,39.86213],[-118.01614,39.86215],[-118.01849,39.86217],[-118.02083,39.86218],[-118.02093,39.85854],[-118.02102,39.8549],[-118.01631,39.85486],[-118.01632,39.85395],[-118.01514,39.85394],[-118.01396,39.85393],[-118.01279,39.85392],[-118.0128,39.85301],[-118.01162,39.853],[-118.01164,39.85209],[-118.01281,39.8521],[-118.01283,39.85119],[-118.01165,39.85118],[-118.00694,39.85114],[-118.00689,39.85479],[-118.00218,39.85475],[-118.00212,39.85841],[-118.00206,39.86207],[-118.00201,39.86573],[-118.00195,39.86939],[-118.00663,39.86941],[-118.00656,39.87124],[-118.00422,39.87123],[-118.00415,39.87306],[-118.00181,39.87305],[-118.00166,39.87672],[-118.00152,39.88039],[-118.00137,39.88406],[-118.00608,39.88405],[-118.00843,39.88404],[-118.00961,39.88404],[-118.01078,39.88404],[-118.01082,39.88312],[-118.00964,39.88313],[-118.00967,39.88221],[-118.0085,39.88221],[-118.00856,39.88039],[-118.00739,39.88039],[-118.00742,39.87947],[-118.00746,39.87856],[-118.00749,39.87764],[-118.00752,39.87673],[-118.00756,39.87581],[-118.00873,39.87582],[-118.00876,39.8749],[-118.01111,39.87491],[-118.01114,39.87399],[-118.01231,39.87399],[-118.01348,39.874],[-118.01465,39.874],[-118.01468,39.87309],[-118.01585,39.87309],[-118.01598,39.86944],[-118.02065,39.86946],[-118.02074,39.86582],[-118.02083,39.86218]]],[[[-118.0212,39.84306],[-118.02122,39.84215],[-118.02124,39.84033],[-118.01888,39.84031],[-118.01652,39.84028],[-118.0165,39.8421],[-118.01647,39.84393],[-118.01529,39.84392],[-118.01411,39.8439],[-118.01175,39.84388],[-118.0118,39.84023],[-118.00708,39.84018],[-118.00703,39.84383],[-118.00698,39.84749],[-118.0117,39.84753],[-118.01288,39.84754],[-118.01289,39.84663],[-118.0129,39.84572],[-118.01408,39.84573],[-118.0141,39.84482],[-118.01528,39.84483],[-118.01646,39.84484],[-118.01763,39.84485],[-118.01765,39.84394],[-118.01883,39.84395],[-118.02001,39.84396],[-118.02002,39.84305],[-118.0212,39.84306]]],[[[-118.01288,39.84754],[-118.0117,39.84753],[-118.00698,39.84749],[-118.00694,39.85114],[-118.01165,39.85118],[-118.01283,39.85119],[-118.01284,39.85028],[-118.01285,39.84936],[-118.01287,39.84845],[-118.01288,39.84754]]]]}},{"type":"Feature","properties":{"case_serial":"NVN-098644","mlrs_id":"NVNV105724217","legacy_serial":"NVN-098644","case_name":null,"disposition":"Authorized","production_status":"Non-Producing","acres":194.9,"effective_date":"2019-11-01","expiration_date":null,"case_type":"GEOTHERMAL COMPETITIVE LEASE POST 2005","case_type_nr":"322200","admin_state":"NV","geo_state":"NV","layer":"authorized"},"geometry":{"type":"Polygon","coordinates":[[[-118.09453,39.77895],[-118.08956,39.77903],[-118.08969,39.78266],[-118.08961,39.78628],[-118.08952,39.78991],[-118.09435,39.78986],[-118.09422,39.7935],[-118.09858,39.79347],[-118.09873,39.78982],[-118.09888,39.78617],[-118.09447,39.78623],[-118.0946,39.78259],[-118.09453,39.77895]]]}},{"type":"Feature","properties":{"case_serial":"NVN-098647","mlrs_id":"NVNV105722769","legacy_serial":"NVN-098647","case_name":null,"disposition":"Authorized","production_status":"Non-Producing","acres":639.2,"effective_date":"2019-11-01","expiration_date":"2029-10-31","case_type":"GEOTHERMAL COMPETITIVE LEASE POST 2005","case_type_nr":"322200","admin_state":"NV","geo_state":"NV","layer":"authorized"},"geometry":{"type":"Polygon","coordinates":[[[-117.88846,39.97736],[-117.88844,39.97375],[-117.88842,39.97014],[-117.88364,39.97004],[-117.87885,39.96993],[-117.87406,39.96983],[-117.86928,39.96973],[-117.86923,39.97339],[-117.86918,39.97705],[-117.86914,39.98071],[-117.86911,39.98436],[-117.87395,39.98441],[-117.87879,39.98446],[-117.88363,39.98451],[-117.88848,39.98456],[-117.88847,39.98098],[-117.88846,39.97736]]]}},{"type":"Feature","properties":{"case_serial":"NVN-098648","mlrs_id":"NVNV105722771","legacy_serial":"NVN-098648","case_name":null,"disposition":"Authorized","production_status":"Non-Producing","acres":4486.46,"effective_date":"2019-11-01","expiration_date":"2029-10-31","case_type":"GEOTHERMAL COMPETITIVE LEASE POST 2005","case_type_nr":"322200","admin_state":"NV","geo_state":"NV","layer":"authorized"},"geometry":{"type":"MultiPolygon","coordinates":[[[[-117.83122,39.95497],[-117.82647,39.95496],[-117.82173,39.95495],[-117.81699,39.95495],[-117.81225,39.95494],[-117.80751,39.95493],[-117.80277,39.95493],[-117.80279,39.95858],[-117.80282,39.96223],[-117.80284,39.96588],[-117.80287,39.96953],[-117.79811,39.96953],[-117.79336,39.96953],[-117.7886,39.96953],[-117.78384,39.96954],[-117.78383,39.96589],[-117.78382,39.96223],[-117.78381,39.95858],[-117.7838,39.95493],[-117.77906,39.95493],[-117.77432,39.95494],[-117.76956,39.95496],[-117.76481,39.95499],[-117.76006,39.95501],[-117.75531,39.95504],[-117.7553,39.95868],[-117.75528,39.96232],[-117.75527,39.96596],[-117.75526,39.96959],[-117.75525,39.97323],[-117.75524,39.97687],[-117.75523,39.98054],[-117.75521,39.9842],[-117.75996,39.9842],[-117.76471,39.98419],[-117.76946,39.98419],[-117.77421,39.98418],[-117.77896,39.98418],[-117.78372,39.98418],[-117.78847,39.98417],[-117.79322,39.98417],[-117.79797,39.98416],[-117.80273,39.98416],[-117.80748,39.98415],[-117.81223,39.98415],[-117.81227,39.98047],[-117.8123,39.97682],[-117.81706,39.97683],[-117.82181,39.97683],[-117.82185,39.97318],[-117.82189,39.96954],[-117.82664,39.96954],[-117.8314,39.96954],[-117.83135,39.9659],[-117.83131,39.96226],[-117.83126,39.95861],[-117.83122,39.95497]]],[[[-117.83192,39.9404],[-117.83174,39.94404],[-117.83157,39.94768],[-117.83139,39.95133],[-117.83122,39.95497],[-117.83597,39.955],[-117.84072,39.95503],[-117.84091,39.95139],[-117.8411,39.94774],[-117.84129,39.9441],[-117.84148,39.94045],[-117.8367,39.94043],[-117.83192,39.9404]]],[[[-117.86918,39.97705],[-117.86479,39.97703],[-117.85992,39.977],[-117.85996,39.98065],[-117.85999,39.98431],[-117.86479,39.98434],[-117.86911,39.98436],[-117.86914,39.98071],[-117.86918,39.97705]]]]}},{"type":"Feature","properties":{"case_serial":"NVN-098659","mlrs_id":"NVNV105722758","legacy_serial":"NVN-098659","case_name":null,"disposition":"Authorized","production_status":"Non-Producing","acres":4799.9,"effective_date":"2019-11-01","expiration_date":null,"case_type":"GEOTHERMAL COMPETITIVE LEASE POST 2005","case_type_nr":"322200","admin_state":"NV","geo_state":"NV","layer":"authorized"},"geometry":{"type":"Polygon","coordinates":[[[-117.85605,39.92597],[-117.85126,39.92593],[-117.84647,39.92591],[-117.84169,39.92588],[-117.8369,39.92585],[-117.83212,39.92582],[-117.82733,39.92581],[-117.82255,39.92579],[-117.81776,39.92577],[-117.81298,39.92576],[-117.8082,39.92575],[-117.80341,39.92573],[-117.79863,39.92572],[-117.79384,39.92571],[-117.79379,39.92936],[-117.79374,39.93301],[-117.79369,39.93666],[-117.79363,39.94031],[-117.78885,39.94031],[-117.78407,39.94032],[-117.77928,39.94032],[-117.7745,39.94032],[-117.76972,39.94035],[-117.76494,39.94037],[-117.76015,39.9404],[-117.75537,39.94043],[-117.75535,39.9441],[-117.75533,39.94776],[-117.75532,39.9514],[-117.75531,39.95504],[-117.76006,39.95501],[-117.76481,39.95499],[-117.76956,39.95496],[-117.77432,39.95494],[-117.77906,39.95493],[-117.7838,39.95493],[-117.78854,39.95492],[-117.79328,39.95492],[-117.79802,39.95492],[-117.80277,39.95493],[-117.80751,39.95493],[-117.81225,39.95494],[-117.81699,39.95495],[-117.82173,39.95495],[-117.82647,39.95496],[-117.83122,39.95497],[-117.83139,39.95133],[-117.83157,39.94768],[-117.83174,39.94404],[-117.83192,39.9404],[-117.8367,39.94043],[-117.84148,39.94045],[-117.84626,39.94048],[-117.85104,39.94051],[-117.8511,39.93687],[-117.85115,39.93322],[-117.85594,39.93325],[-117.86072,39.93328],[-117.86551,39.93331],[-117.86988,39.93333],[-117.86994,39.9297],[-117.87,39.92607],[-117.86562,39.92604],[-117.86083,39.92601],[-117.85605,39.92597]]]}},{"type":"Feature","properties":{"case_serial":"NVN-098660","mlrs_id":"NVNV105721967","legacy_serial":"NVN-098660","case_name":null,"disposition":"Authorized","production_status":"Non-Producing","acres":5106.62,"effective_date":"2019-11-01","expiration_date":"2029-10-31","case_type":"GEOTHERMAL COMPETITIVE LEASE POST 2005","case_type_nr":"322200","admin_state":"NV","geo_state":"NV","layer":"authorized"},"geometry":{"type":"Polygon","coordinates":[[[-117.7795,39.91109],[-117.77473,39.91108],[-117.76994,39.9111],[-117.76514,39.91111],[-117.76035,39.91113],[-117.75556,39.91115],[-117.75556,39.91482],[-117.75555,39.9185],[-117.75555,39.92216],[-117.75554,39.92582],[-117.7555,39.92947],[-117.75546,39.93312],[-117.75541,39.93678],[-117.75537,39.94043],[-117.76015,39.9404],[-117.76494,39.94037],[-117.76972,39.94035],[-117.7745,39.94032],[-117.77928,39.94032],[-117.78407,39.94032],[-117.78885,39.94031],[-117.79363,39.94031],[-117.79369,39.93666],[-117.79374,39.93301],[-117.79379,39.92936],[-117.79384,39.92571],[-117.79863,39.92572],[-117.80341,39.92573],[-117.8082,39.92575],[-117.81298,39.92576],[-117.81776,39.92577],[-117.82255,39.92579],[-117.82733,39.92581],[-117.83212,39.92582],[-117.8369,39.92585],[-117.84169,39.92588],[-117.84647,39.92591],[-117.85126,39.92593],[-117.85605,39.92597],[-117.86083,39.92601],[-117.86562,39.92604],[-117.87,39.92607],[-117.87006,39.92244],[-117.87012,39.91881],[-117.87004,39.91515],[-117.86996,39.91149],[-117.86557,39.91146],[-117.86078,39.91142],[-117.856,39.91139],[-117.85121,39.91135],[-117.84643,39.91133],[-117.84165,39.9113],[-117.83687,39.91127],[-117.83209,39.91125],[-117.82731,39.91123],[-117.82253,39.91121],[-117.81775,39.91119],[-117.81297,39.91117],[-117.80818,39.91115],[-117.8034,39.91113],[-117.79862,39.91112],[-117.79384,39.9111],[-117.78906,39.9111],[-117.78428,39.91109],[-117.7795,39.91109]]]}},{"type":"Feature","properties":{"case_serial":"NVN-098661","mlrs_id":"NVNV105721965","legacy_serial":"NVN-098661","case_name":null,"disposition":"Authorized","production_status":"Non-Producing","acres":3827.04,"effective_date":"2025-11-01","expiration_date":"2029-10-31","case_type":"GEOTHERMAL COMPETITIVE LEASE POST 2005","case_type_nr":"322200","admin_state":"NV","geo_state":"NV","layer":"authorized"},"geometry":{"type":"Polygon","coordinates":[[[-117.86964,39.89685],[-117.86524,39.89683],[-117.86045,39.89681],[-117.85565,39.89679],[-117.85086,39.89676],[-117.84607,39.89674],[-117.84128,39.89672],[-117.83649,39.89669],[-117.8317,39.89667],[-117.82691,39.89665],[-117.82212,39.89662],[-117.81733,39.8966],[-117.81254,39.89657],[-117.80774,39.89655],[-117.80295,39.89653],[-117.79823,39.89651],[-117.79351,39.89649],[-117.78878,39.89648],[-117.78405,39.89646],[-117.7793,39.89646],[-117.77456,39.89646],[-117.76981,39.89646],[-117.76507,39.89646],[-117.76033,39.89649],[-117.75559,39.89651],[-117.75558,39.90016],[-117.75558,39.9038],[-117.75557,39.90747],[-117.75556,39.91115],[-117.76035,39.91113],[-117.76514,39.91111],[-117.76994,39.9111],[-117.77473,39.91108],[-117.7795,39.91109],[-117.78428,39.91109],[-117.78906,39.9111],[-117.79384,39.9111],[-117.79862,39.91112],[-117.8034,39.91113],[-117.80818,39.91115],[-117.81297,39.91117],[-117.81775,39.91119],[-117.82253,39.91121],[-117.82731,39.91123],[-117.83209,39.91125],[-117.83687,39.91127],[-117.84165,39.9113],[-117.84643,39.91133],[-117.85121,39.91135],[-117.856,39.91139],[-117.86078,39.91142],[-117.86557,39.91146],[-117.86996,39.91149],[-117.86988,39.90783],[-117.8698,39.90417],[-117.86972,39.90051],[-117.86964,39.89685]]]}},{"type":"Feature","properties":{"case_serial":"NVN-098665","mlrs_id":"NVNV105724228","legacy_serial":"NVN-098665","case_name":null,"disposition":"Authorized","production_status":"Non-Producing","acres":2570.91,"effective_date":"2025-11-01","expiration_date":"2029-10-31","case_type":"GEOTHERMAL COMPETITIVE LEASE POST 2005","case_type_nr":"322200","admin_state":"NV","geo_state":"NV","layer":"authorized"},"geometry":{"type":"Polygon","coordinates":[[[-117.75537,39.94043],[-117.75113,39.94042],[-117.74644,39.94041],[-117.74643,39.94407],[-117.74642,39.94773],[-117.74641,39.95138],[-117.7464,39.95502],[-117.74174,39.95501],[-117.73708,39.955],[-117.73245,39.95498],[-117.72783,39.95496],[-117.72785,39.95861],[-117.72787,39.96227],[-117.7279,39.96592],[-117.72792,39.96958],[-117.72562,39.96957],[-117.72565,39.97139],[-117.72567,39.97321],[-117.72569,39.97503],[-117.72572,39.97685],[-117.72574,39.97867],[-117.72575,39.98049],[-117.72804,39.9805],[-117.72808,39.98413],[-117.73266,39.98416],[-117.73725,39.9842],[-117.74183,39.98421],[-117.74641,39.98421],[-117.75105,39.98421],[-117.75521,39.9842],[-117.75523,39.98054],[-117.75524,39.97687],[-117.75525,39.97323],[-117.75526,39.96959],[-117.75527,39.96596],[-117.75528,39.96232],[-117.7553,39.95868],[-117.75531,39.95504],[-117.75532,39.9514],[-117.75533,39.94776],[-117.75535,39.9441],[-117.75537,39.94043]],[[-117.75109,39.95503],[-117.74758,39.95503],[-117.74758,39.95138],[-117.74759,39.94773],[-117.7511,39.94775],[-117.7511,39.95139],[-117.75109,39.95503]]]}},{"type":"Feature","properties":{"case_serial":"NVN-098666","mlrs_id":"NVNV105719610","legacy_serial":"NVN-098666","case_name":null,"disposition":"Authorized","production_status":"Non-Producing","acres":2170.72,"effective_date":"2025-10-01","expiration_date":"2029-10-31","case_type":"GEOTHERMAL COMPETITIVE LEASE POST 2005","case_type_nr":"322200","admin_state":"NV","geo_state":"NV","layer":"authorized"},"geometry":{"type":"Polygon","coordinates":[[[-117.75556,39.91115],[-117.75128,39.91115],[-117.74658,39.91115],[-117.74189,39.91114],[-117.7372,39.91114],[-117.7372,39.9148],[-117.73721,39.91846],[-117.73721,39.92212],[-117.73722,39.92578],[-117.73258,39.92575],[-117.72793,39.92572],[-117.72329,39.92569],[-117.71865,39.92567],[-117.71863,39.92932],[-117.71862,39.93298],[-117.72325,39.933],[-117.72323,39.93666],[-117.72787,39.93668],[-117.72785,39.94034],[-117.72553,39.94032],[-117.72553,39.94215],[-117.72553,39.94398],[-117.72552,39.94581],[-117.72552,39.94763],[-117.72552,39.94946],[-117.72552,39.95129],[-117.72552,39.95312],[-117.72552,39.95494],[-117.72783,39.95496],[-117.73245,39.95498],[-117.73708,39.955],[-117.73708,39.95135],[-117.73709,39.94769],[-117.7371,39.94404],[-117.73711,39.94039],[-117.74177,39.9404],[-117.74644,39.94041],[-117.75113,39.94042],[-117.75537,39.94043],[-117.75541,39.93678],[-117.75546,39.93312],[-117.7555,39.92947],[-117.75554,39.92582],[-117.75555,39.92216],[-117.75555,39.9185],[-117.75556,39.91482],[-117.75556,39.91115]]]}},{"type":"Feature","properties":{"case_serial":"NVN-100023","mlrs_id":"NVNV105517574","legacy_serial":"NVN-100023","case_name":null,"disposition":"Authorized","production_status":"Non-Producing","acres":1600.0,"effective_date":"2020-12-01","expiration_date":"2030-11-30","case_type":"GEOTHERMAL COMPETITIVE LEASE POST 2005","case_type_nr":"322200","admin_state":"NV","geo_state":"NV","layer":"authorized"},"geometry":{"type":"Polygon","coordinates":[[[-117.75896,40.08253],[-117.75893,40.08607],[-117.75887,40.09332],[-117.76829,40.09332],[-117.77772,40.09332],[-117.77777,40.08608],[-117.7966,40.08608],[-117.7967,40.07159],[-117.79621,40.07159],[-117.79396,40.07159],[-117.79251,40.07159],[-117.78888,40.07159],[-117.7866,40.07159],[-117.78626,40.07159],[-117.78453,40.07159],[-117.783,40.07159],[-117.77951,40.07159],[-117.77788,40.07159],[-117.77757,40.07159],[-117.77507,40.07159],[-117.77349,40.07159],[-117.77034,40.07159],[-117.76872,40.07159],[-117.76846,40.07159],[-117.76555,40.07158],[-117.76388,40.07158],[-117.76072,40.07158],[-117.76069,40.07158],[-117.75904,40.07158],[-117.75901,40.07523],[-117.75899,40.07888],[-117.75896,40.08253]]]}},{"type":"Feature","properties":{"case_serial":"NVN-100664","mlrs_id":"NVNV105724612","legacy_serial":"NVN-100664","case_name":null,"disposition":"Authorized","production_status":"Non-Producing","acres":3795.75,"effective_date":"2021-12-01","expiration_date":"2031-11-30","case_type":"GEOTHERMAL COMPETITIVE LEASE POST 2005","case_type_nr":"322200","admin_state":"NV","geo_state":"NV","layer":"authorized"},"geometry":{"type":"MultiPolygon","coordinates":[[[[-117.83332,40.01337],[-117.82858,40.01336],[-117.82384,40.01336],[-117.8236,40.00971],[-117.82336,40.00606],[-117.82313,40.00241],[-117.82289,39.99876],[-117.81814,39.99876],[-117.81338,39.99876],[-117.81363,40.00241],[-117.81387,40.00606],[-117.81412,40.00971],[-117.81436,40.01336],[-117.81458,40.01701],[-117.81479,40.02066],[-117.81501,40.02431],[-117.81522,40.02796],[-117.81544,40.03161],[-117.81071,40.03161],[-117.81093,40.03526],[-117.8062,40.03527],[-117.80642,40.03892],[-117.80664,40.04257],[-117.80191,40.04257],[-117.79719,40.04257],[-117.79744,40.04623],[-117.79769,40.04988],[-117.79794,40.05354],[-117.7982,40.0572],[-117.79347,40.0572],[-117.78875,40.05721],[-117.78403,40.05721],[-117.77931,40.05722],[-117.77456,40.0572],[-117.76982,40.05717],[-117.76507,40.05715],[-117.76032,40.05713],[-117.76046,40.06076],[-117.76059,40.0644],[-117.76066,40.06803],[-117.76072,40.07158],[-117.76388,40.07158],[-117.76555,40.07158],[-117.76846,40.07159],[-117.76872,40.07159],[-117.77034,40.07159],[-117.77349,40.07159],[-117.77507,40.07159],[-117.77757,40.07159],[-117.77788,40.07159],[-117.77951,40.07159],[-117.783,40.07159],[-117.78453,40.07159],[-117.78626,40.07159],[-117.7866,40.07159],[-117.78888,40.07159],[-117.79251,40.07159],[-117.79396,40.07159],[-117.79621,40.07159],[-117.7967,40.07159],[-117.79822,40.07159],[-117.80196,40.07159],[-117.80333,40.07159],[-117.80325,40.0681],[-117.80792,40.0681],[-117.80782,40.06447],[-117.80772,40.06083],[-117.81244,40.06082],[-117.81234,40.05718],[-117.8121,40.05353],[-117.81185,40.04988],[-117.81161,40.04622],[-117.81137,40.04257],[-117.81609,40.04257],[-117.82079,40.04256],[-117.8255,40.04255],[-117.82529,40.0389],[-117.82508,40.03526],[-117.82488,40.03161],[-117.82467,40.02796],[-117.82446,40.02431],[-117.82919,40.02431],[-117.82899,40.02066],[-117.82878,40.01701],[-117.83352,40.01701],[-117.83332,40.01337]]],[[[-117.84675,39.99884],[-117.84197,39.99881],[-117.83718,39.99878],[-117.8324,39.99876],[-117.83263,40.00241],[-117.83286,40.00606],[-117.83309,40.00971],[-117.83332,40.01337],[-117.83808,40.01338],[-117.84285,40.0134],[-117.84263,40.00975],[-117.84241,40.00611],[-117.84718,40.00613],[-117.84697,40.00248],[-117.84675,39.99884]]]]}},{"type":"Feature","properties":{"case_serial":"NVN-100665","mlrs_id":"NVNV105724613","legacy_serial":"NVN-100665","case_name":null,"disposition":"Authorized","production_status":"Non-Producing","acres":4920.0,"effective_date":"2021-12-01","expiration_date":"2031-11-30","case_type":"GEOTHERMAL COMPETITIVE LEASE POST 2005","case_type_nr":"322200","admin_state":"NV","geo_state":"NV","layer":"authorized"},"geometry":{"type":"Polygon","coordinates":[[[-117.81458,40.01701],[-117.81436,40.01336],[-117.80963,40.01336],[-117.80489,40.01336],[-117.80016,40.01336],[-117.79542,40.01336],[-117.79068,40.01336],[-117.78595,40.01336],[-117.78121,40.01336],[-117.77647,40.01336],[-117.77176,40.01336],[-117.76704,40.01335],[-117.76232,40.01335],[-117.75761,40.01335],[-117.75783,40.01699],[-117.75806,40.02063],[-117.75828,40.02428],[-117.7585,40.02792],[-117.75872,40.03157],[-117.75894,40.03522],[-117.75916,40.03888],[-117.75938,40.04253],[-117.75962,40.04618],[-117.75985,40.04983],[-117.76009,40.05348],[-117.76032,40.05713],[-117.76507,40.05715],[-117.76982,40.05717],[-117.77456,40.0572],[-117.77931,40.05722],[-117.78403,40.05721],[-117.78875,40.05721],[-117.79347,40.0572],[-117.7982,40.0572],[-117.79794,40.05354],[-117.79769,40.04988],[-117.79744,40.04623],[-117.79719,40.04257],[-117.80191,40.04257],[-117.80664,40.04257],[-117.80642,40.03892],[-117.8062,40.03527],[-117.81093,40.03526],[-117.81071,40.03161],[-117.81544,40.03161],[-117.81522,40.02796],[-117.81501,40.02431],[-117.81479,40.02066],[-117.81458,40.01701]]]}},{"type":"Feature","properties":{"case_serial":"NVN-100666","mlrs_id":"NVNV105723152","legacy_serial":"NVN-100666","case_name":null,"disposition":"Authorized","production_status":"Non-Producing","acres":1680.0,"effective_date":"2021-12-01","expiration_date":null,"case_type":"GEOTHERMAL COMPETITIVE LEASE POST 2005","case_type_nr":"322200","admin_state":"NV","geo_state":"NV","layer":"authorized"},"geometry":{"type":"MultiPolygon","coordinates":[[[[-117.80888,40.00241],[-117.80414,40.00241],[-117.7994,40.00241],[-117.79466,40.00241],[-117.78992,40.00241],[-117.78518,40.00242],[-117.78044,40.00242],[-117.77571,40.00242],[-117.771,40.00242],[-117.76629,40.00241],[-117.76158,40.00241],[-117.75686,40.00241],[-117.75711,40.00606],[-117.75736,40.0097],[-117.75761,40.01335],[-117.76232,40.01335],[-117.76704,40.01335],[-117.77176,40.01336],[-117.77647,40.01336],[-117.78121,40.01336],[-117.78595,40.01336],[-117.79068,40.01336],[-117.79542,40.01336],[-117.80016,40.01336],[-117.80489,40.01336],[-117.80963,40.01336],[-117.81436,40.01336],[-117.81412,40.00971],[-117.81387,40.00606],[-117.81363,40.00241],[-117.80888,40.00241]]],[[[-117.83263,40.00241],[-117.82788,40.00241],[-117.82313,40.00241],[-117.82336,40.00606],[-117.8236,40.00971],[-117.82384,40.01336],[-117.82858,40.01336],[-117.83332,40.01337],[-117.83309,40.00971],[-117.83286,40.00606],[-117.83263,40.00241]]]]}},{"type":"Feature","properties":{"case_serial":"NVN-100667","mlrs_id":"NVNV105723151","legacy_serial":"NVN-100667","case_name":null,"disposition":"Authorized","production_status":"Non-Producing","acres":2480.0,"effective_date":"2021-12-01","expiration_date":"2031-11-30","case_type":"GEOTHERMAL COMPETITIVE LEASE POST 2005","case_type_nr":"322200","admin_state":"NV","geo_state":"NV","layer":"authorized"},"geometry":{"type":"MultiPolygon","coordinates":[[[[-117.81252,39.9878],[-117.81223,39.98415],[-117.80748,39.98415],[-117.80273,39.98416],[-117.79797,39.98416],[-117.79322,39.98417],[-117.78847,39.98417],[-117.78372,39.98418],[-117.77896,39.98418],[-117.77421,39.98418],[-117.76946,39.98419],[-117.76471,39.98419],[-117.75996,39.9842],[-117.75521,39.9842],[-117.75556,39.98784],[-117.75591,39.99148],[-117.75627,39.99512],[-117.75662,39.99876],[-117.75686,40.00241],[-117.76158,40.00241],[-117.76629,40.00241],[-117.771,40.00242],[-117.77571,40.00242],[-117.78044,40.00242],[-117.78518,40.00242],[-117.78992,40.00241],[-117.79466,40.00241],[-117.7994,40.00241],[-117.80414,40.00241],[-117.80888,40.00241],[-117.81363,40.00241],[-117.81338,39.99876],[-117.81309,39.99511],[-117.81281,39.99145],[-117.81252,39.9878]]],[[[-117.82289,39.99876],[-117.82313,40.00241],[-117.82788,40.00241],[-117.83263,40.00241],[-117.8324,39.99876],[-117.82765,39.99876],[-117.82289,39.99876]]]]}},{"type":"Feature","properties":{"case_serial":"NVN-100669","mlrs_id":"NVNV105723828","legacy_serial":"NVN-100669","case_name":null,"disposition":"Authorized","production_status":"Non-Producing","acres":2678.17,"effective_date":"2021-12-01","expiration_date":null,"case_type":"GEOTHERMAL COMPETITIVE LEASE POST 2005","case_type_nr":"322200","admin_state":"NV","geo_state":"NV","layer":"authorized"},"geometry":{"type":"MultiPolygon","coordinates":[[[[-117.75593,39.87106],[-117.75602,39.86746],[-117.75165,39.86747],[-117.74695,39.86747],[-117.74686,39.8711],[-117.74677,39.87472],[-117.74668,39.87832],[-117.7466,39.88192],[-117.74188,39.88198],[-117.73717,39.88204],[-117.73708,39.88571],[-117.73699,39.88938],[-117.73695,39.89302],[-117.7369,39.8965],[-117.73218,39.89647],[-117.72747,39.89644],[-117.72757,39.90011],[-117.72768,39.90377],[-117.72779,39.90743],[-117.7279,39.91109],[-117.72325,39.91106],[-117.7186,39.91104],[-117.71861,39.91469],[-117.71862,39.91835],[-117.71864,39.92201],[-117.71865,39.92567],[-117.72329,39.92569],[-117.72793,39.92572],[-117.73258,39.92575],[-117.73722,39.92578],[-117.73721,39.92212],[-117.73721,39.91846],[-117.7372,39.9148],[-117.7372,39.91114],[-117.74189,39.91114],[-117.74658,39.91115],[-117.75128,39.91115],[-117.75556,39.91115],[-117.75557,39.90747],[-117.75558,39.9038],[-117.75558,39.90016],[-117.75559,39.89651],[-117.7556,39.89286],[-117.75561,39.88921],[-117.75563,39.88554],[-117.75565,39.88186],[-117.75574,39.87826],[-117.75583,39.87466],[-117.75593,39.87106]]],[[[-117.71865,39.92567],[-117.71401,39.92565],[-117.70937,39.92563],[-117.70935,39.92929],[-117.70933,39.93294],[-117.71397,39.93296],[-117.71862,39.93298],[-117.71863,39.92932],[-117.71865,39.92567]]]]}},{"type":"Feature","properties":{"case_serial":"NVNV106745543","mlrs_id":"NVNV106745543","legacy_serial":null,"case_name":null,"disposition":"Authorized","production_status":"Non-Producing","acres":1920.54,"effective_date":"2025-12-01","expiration_date":"2035-11-30","case_type":"GEOTHERMAL COMPETITIVE LEASE POST 2005","case_type_nr":"322200","admin_state":"NV","geo_state":"NV","layer":"authorized"},"geometry":{"type":"MultiPolygon","coordinates":[[[[-118.17458,39.92773],[-118.17465,39.94223],[-118.17933,39.94223],[-118.18402,39.94223],[-118.18871,39.94223],[-118.19339,39.94223],[-118.19339,39.93861],[-118.19339,39.93498],[-118.1934,39.93136],[-118.1934,39.92774],[-118.1934,39.92411],[-118.1934,39.92049],[-118.1934,39.91687],[-118.1934,39.91324],[-118.18863,39.91324],[-118.17457,39.91324],[-118.17458,39.92773]]],[[[-118.21215,39.8915],[-118.21214,39.89513],[-118.21214,39.89513],[-118.21214,39.89878],[-118.21685,39.89878],[-118.22156,39.89878],[-118.22626,39.89878],[-118.23097,39.89877],[-118.23097,39.89512],[-118.23097,39.89149],[-118.23097,39.88786],[-118.23097,39.88423],[-118.22627,39.88422],[-118.22157,39.88422],[-118.21686,39.88421],[-118.21216,39.88421],[-118.21216,39.88426],[-118.21215,39.88785],[-118.21215,39.88788],[-118.21215,39.89148],[-118.21215,39.8915]]]]}},{"type":"Feature","properties":{"case_serial":"NVNV106745546","mlrs_id":"NVNV106745546","legacy_serial":null,"case_name":null,"disposition":"Authorized","production_status":"Non-Producing","acres":1875.97,"effective_date":"2025-12-01","expiration_date":"2035-11-30","case_type":"GEOTHERMAL COMPETITIVE LEASE POST 2005","case_type_nr":"322200","admin_state":"NV","geo_state":"NV","layer":"authorized"},"geometry":{"type":"MultiPolygon","coordinates":[[[[-118.19339,39.94585],[-118.19339,39.94947],[-118.19339,39.95309],[-118.19338,39.95671],[-118.19809,39.95671],[-118.20279,39.95671],[-118.20749,39.95672],[-118.2122,39.95672],[-118.21219,39.9531],[-118.21219,39.94948],[-118.21219,39.94586],[-118.21218,39.94224],[-118.20748,39.94224],[-118.20279,39.94223],[-118.19809,39.94223],[-118.19339,39.94223],[-118.19339,39.94585]]],[[[-118.1934,39.91687],[-118.1934,39.92049],[-118.1934,39.92411],[-118.1934,39.92774],[-118.19809,39.92774],[-118.20278,39.92774],[-118.20747,39.92775],[-118.21217,39.92775],[-118.21216,39.92413],[-118.21216,39.9205],[-118.21216,39.91688],[-118.21215,39.91326],[-118.20746,39.91325],[-118.20278,39.91325],[-118.19809,39.91325],[-118.1934,39.91324],[-118.1934,39.91687]]],[[[-118.19336,39.98208],[-118.19335,39.98471],[-118.19676,39.98471],[-118.19734,39.98471],[-118.19807,39.98471],[-118.20148,39.98471],[-118.20279,39.98471],[-118.20624,39.98471],[-118.20737,39.98471],[-118.2075,39.98471],[-118.21041,39.98472],[-118.21222,39.98472],[-118.21222,39.9821],[-118.21222,39.97847],[-118.21221,39.97485],[-118.21221,39.97122],[-118.2075,39.97122],[-118.20279,39.97122],[-118.19808,39.97122],[-118.19337,39.97122],[-118.19336,39.97484],[-118.19336,39.97846],[-118.19336,39.98208]]]]}}]}