{"type":"FeatureCollection","name":"closed","crs":{"type":"name","properties":{"name":"urn:ogc:def:crs:OGC:1.3:CRS84"}},"features":[{"type":"Feature","properties":{"case_serial":"NVN-086887","mlrs_id":"NVNV105384061","legacy_serial":"NVN-086887","case_name":null,"disposition":"Closed","production_status":"Non-Producing","acres":3790.25,"effective_date":null,"expiration_date":null,"case_type":"GEOTHERMAL COMPETITIVE LEASE POST 2005","case_type_nr":"322200","admin_state":"NV","geo_state":"NV","layer":"closed"},"geometry":{"type":"MultiPolygon","coordinates":[[[[-118.0149,39.69419],[-118.0149,39.69057],[-118.01489,39.68696],[-118.0196,39.68694],[-118.0243,39.68693],[-118.02428,39.6833],[-118.02427,39.67967],[-118.02425,39.67604],[-118.02424,39.67241],[-118.02423,39.66878],[-118.02422,39.66515],[-118.01956,39.66517],[-118.0149,39.6652],[-118.01024,39.66522],[-118.01023,39.66885],[-118.01022,39.67248],[-118.01021,39.67611],[-118.00553,39.67614],[-118.00551,39.67977],[-118.00013,39.67962],[-117.99475,39.67946],[-117.99475,39.68308],[-117.98937,39.68294],[-117.98937,39.68656],[-117.984,39.68642],[-117.98401,39.69005],[-117.9794,39.69006],[-117.9794,39.69368],[-117.9747,39.6937],[-117.96998,39.69371],[-117.96527,39.69373],[-117.96528,39.69736],[-117.96528,39.70099],[-117.96528,39.70461],[-117.96528,39.70824],[-117.97001,39.70823],[-117.97473,39.70821],[-117.97944,39.70819],[-117.98405,39.70818],[-117.9895,39.70834],[-117.99495,39.7085],[-118.0004,39.70866],[-118.00585,39.70881],[-118.00578,39.70516],[-118.0057,39.70151],[-118.00559,39.69785],[-118.00547,39.6942],[-118.01018,39.6942],[-118.0149,39.69419]]],[[[-118.01981,39.70883],[-118.02434,39.70879],[-118.02896,39.70879],[-118.03358,39.70879],[-118.0382,39.70878],[-118.04282,39.70878],[-118.04302,39.70514],[-118.04322,39.7015],[-118.03845,39.7015],[-118.03369,39.7015],[-118.02901,39.70149],[-118.02434,39.70149],[-118.02433,39.69784],[-118.02433,39.69419],[-118.01961,39.69419],[-118.0149,39.69419],[-118.01499,39.69785],[-118.01509,39.7015],[-118.01518,39.70518],[-118.01528,39.70886],[-118.01981,39.70883]]]]}},{"type":"Feature","properties":{"case_serial":"NVN-088409","mlrs_id":"NVNV105371880","legacy_serial":"NVN-088409","case_name":null,"disposition":"Closed","production_status":"Non-Producing","acres":4720.75,"effective_date":"2010-07-01","expiration_date":null,"case_type":"GEOTHERMAL COMPETITIVE LEASE POST 2005","case_type_nr":"322200","admin_state":"NV","geo_state":"NV","layer":"closed"},"geometry":{"type":"Polygon","coordinates":[[[-118.11343,39.4905],[-118.10875,39.4905],[-118.10407,39.4905],[-118.0994,39.49051],[-118.09472,39.49051],[-118.09472,39.49413],[-118.09471,39.49776],[-118.09471,39.50138],[-118.0947,39.50501],[-118.0947,39.50863],[-118.09469,39.51226],[-118.09469,39.51588],[-118.09468,39.5195],[-118.09468,39.52313],[-118.09467,39.52675],[-118.09467,39.53038],[-118.09466,39.534],[-118.09466,39.53763],[-118.09465,39.54125],[-118.09933,39.54125],[-118.10401,39.54124],[-118.10868,39.54124],[-118.11336,39.54123],[-118.11804,39.54123],[-118.11804,39.54485],[-118.11803,39.5485],[-118.12271,39.5485],[-118.12739,39.5485],[-118.13207,39.5485],[-118.13207,39.54486],[-118.13208,39.54124],[-118.13208,39.53761],[-118.13208,39.53399],[-118.13209,39.53037],[-118.13209,39.52674],[-118.13209,39.52312],[-118.1321,39.51949],[-118.1321,39.51587],[-118.13211,39.51225],[-118.13211,39.50862],[-118.13211,39.505],[-118.13212,39.50137],[-118.13212,39.49775],[-118.13212,39.49413],[-118.13213,39.4905],[-118.12745,39.4905],[-118.12278,39.4905],[-118.1181,39.4905],[-118.11343,39.4905]]]}},{"type":"Feature","properties":{"case_serial":"NVN-088410","mlrs_id":"NVNV105371881","legacy_serial":"NVN-088410","case_name":null,"disposition":"Closed","production_status":"Non-Producing","acres":4719.04,"effective_date":"2010-07-01","expiration_date":null,"case_type":"GEOTHERMAL COMPETITIVE LEASE POST 2005","case_type_nr":"322200","admin_state":"NV","geo_state":"NV","layer":"closed"},"geometry":{"type":"Polygon","coordinates":[[[-118.11803,39.55212],[-118.11335,39.55212],[-118.11336,39.55575],[-118.10868,39.55575],[-118.10868,39.55937],[-118.104,39.55937],[-118.104,39.563],[-118.09932,39.563],[-118.09932,39.56662],[-118.09464,39.56662],[-118.09464,39.57024],[-118.09464,39.57386],[-118.09464,39.57748],[-118.09464,39.58111],[-118.09464,39.58473],[-118.09464,39.58836],[-118.09464,39.59198],[-118.09464,39.5956],[-118.09464,39.59923],[-118.09464,39.60285],[-118.09464,39.60647],[-118.09464,39.6101],[-118.09464,39.61372],[-118.09464,39.61734],[-118.09464,39.62096],[-118.09464,39.62459],[-118.09464,39.62821],[-118.09464,39.63183],[-118.09464,39.63616],[-118.09683,39.63616],[-118.09932,39.63616],[-118.10152,39.63616],[-118.10401,39.63617],[-118.10621,39.63617],[-118.10869,39.63617],[-118.11089,39.63617],[-118.11337,39.63617],[-118.11558,39.63617],[-118.11806,39.63617],[-118.11806,39.63183],[-118.11805,39.62821],[-118.11805,39.62459],[-118.11805,39.62096],[-118.11805,39.61734],[-118.11805,39.61372],[-118.11805,39.61009],[-118.11805,39.60647],[-118.11805,39.60285],[-118.11805,39.59922],[-118.11805,39.5956],[-118.11804,39.59198],[-118.11804,39.58835],[-118.11804,39.58473],[-118.11804,39.58111],[-118.11804,39.57749],[-118.11804,39.57386],[-118.11804,39.57024],[-118.11804,39.56662],[-118.11804,39.563],[-118.12272,39.56299],[-118.1274,39.56299],[-118.13208,39.56299],[-118.13207,39.55937],[-118.13207,39.55575],[-118.13207,39.55212],[-118.13207,39.5485],[-118.12739,39.5485],[-118.12271,39.5485],[-118.11803,39.5485],[-118.11803,39.55212]]]}},{"type":"Feature","properties":{"case_serial":"NVN-088411","mlrs_id":"NVNV105371882","legacy_serial":"NVN-088411","case_name":null,"disposition":"Closed","production_status":"Non-Producing","acres":3056.75,"effective_date":"2010-07-01","expiration_date":null,"case_type":"GEOTHERMAL COMPETITIVE LEASE POST 2005","case_type_nr":"322200","admin_state":"NV","geo_state":"NV","layer":"closed"},"geometry":{"type":"Polygon","coordinates":[[[-118.14144,39.57748],[-118.13676,39.57748],[-118.13676,39.58111],[-118.13677,39.58473],[-118.13677,39.58835],[-118.13677,39.59197],[-118.13677,39.5956],[-118.13677,39.59922],[-118.13678,39.60284],[-118.13678,39.60646],[-118.13678,39.61009],[-118.13678,39.61371],[-118.13678,39.61733],[-118.13679,39.62095],[-118.13679,39.62458],[-118.13679,39.6282],[-118.13679,39.63182],[-118.13679,39.63617],[-118.139,39.63617],[-118.14148,39.63617],[-118.14368,39.63618],[-118.14616,39.63618],[-118.14837,39.63618],[-118.15085,39.63618],[-118.15305,39.63618],[-118.15554,39.63618],[-118.15774,39.63618],[-118.16022,39.63618],[-118.16242,39.63618],[-118.16491,39.63618],[-118.16711,39.63618],[-118.16959,39.63618],[-118.16959,39.63181],[-118.16958,39.62819],[-118.1649,39.62819],[-118.1649,39.62457],[-118.16489,39.62095],[-118.16489,39.61733],[-118.16488,39.61371],[-118.16957,39.6137],[-118.16956,39.61008],[-118.16956,39.60646],[-118.16487,39.60646],[-118.16019,39.60646],[-118.15551,39.60647],[-118.15083,39.60647],[-118.15082,39.60285],[-118.15082,39.59922],[-118.15082,39.5956],[-118.15081,39.59198],[-118.15081,39.58836],[-118.15081,39.58473],[-118.15081,39.58111],[-118.14612,39.58111],[-118.14612,39.57749],[-118.14144,39.57748]]]}},{"type":"Feature","properties":{"case_serial":"NVN-087537","mlrs_id":"NVNV105391459","legacy_serial":"NVN-087537","case_name":null,"disposition":"Closed","production_status":"Non-Producing","acres":1040.0,"effective_date":"2009-09-01","expiration_date":null,"case_type":"GEOTHERMAL NONCOMPETITIVE LEASE POST 2005","case_type_nr":"321200","admin_state":"NV","geo_state":"NV","layer":"closed"},"geometry":{"type":"Polygon","coordinates":[[[-118.15081,39.58473],[-118.15081,39.58836],[-118.15081,39.59198],[-118.15082,39.5956],[-118.15082,39.59922],[-118.15082,39.60285],[-118.15083,39.60647],[-118.15551,39.60647],[-118.16019,39.60646],[-118.16487,39.60646],[-118.16956,39.60646],[-118.16955,39.60284],[-118.16955,39.59921],[-118.16954,39.59559],[-118.16954,39.59197],[-118.16954,39.58835],[-118.16953,39.58472],[-118.16485,39.58473],[-118.16017,39.58473],[-118.16017,39.58111],[-118.15549,39.58111],[-118.15081,39.58111],[-118.15081,39.58473]]]}},{"type":"Feature","properties":{"case_serial":"NVN-008785","mlrs_id":"NVNV105588766","legacy_serial":"NVN-008785","case_name":null,"disposition":"Closed","production_status":"Non-Producing","acres":2361.0,"effective_date":"1975-09-01","expiration_date":null,"case_type":"GEOTHERMAL NONCOMPETITIVE LEASE PRE 2005","case_type_nr":"321000","admin_state":"NV","geo_state":"NV","layer":"closed"},"geometry":{"type":"MultiPolygon","coordinates":[[[[-118.20469,39.46152],[-118.20227,39.46152],[-118.20047,39.46152],[-118.19759,39.46152],[-118.19579,39.46152],[-118.19292,39.46152],[-118.19112,39.46152],[-118.18824,39.46152],[-118.18824,39.46515],[-118.18824,39.46877],[-118.18824,39.47239],[-118.18824,39.47602],[-118.18824,39.47964],[-118.18824,39.48326],[-118.18824,39.48689],[-118.18824,39.49051],[-118.19291,39.49051],[-118.19759,39.4905],[-118.20226,39.4905],[-118.20694,39.4905],[-118.20694,39.48688],[-118.20694,39.48326],[-118.20694,39.47964],[-118.20694,39.47602],[-118.21977,39.47602],[-118.21977,39.47413],[-118.21973,39.46152],[-118.21871,39.46152],[-118.21629,39.46152],[-118.21404,39.46152],[-118.21161,39.46152],[-118.20937,39.46152],[-118.20694,39.46152],[-118.20469,39.46152]]],[[[-118.18824,39.49051],[-118.18356,39.49051],[-118.17889,39.49051],[-118.17421,39.49051],[-118.16954,39.49051],[-118.16954,39.49414],[-118.16954,39.49776],[-118.16954,39.50138],[-118.16953,39.505],[-118.17421,39.505],[-118.17888,39.505],[-118.18356,39.505],[-118.18823,39.505],[-118.18823,39.50138],[-118.18824,39.49776],[-118.18824,39.49413],[-118.18824,39.49051]]]]}},{"type":"Feature","properties":{"case_serial":"NVN-008787","mlrs_id":"NVNV105581495","legacy_serial":"NVN-008787","case_name":null,"disposition":"Closed","production_status":"Non-Producing","acres":1920.0,"effective_date":"1975-07-01","expiration_date":null,"case_type":"GEOTHERMAL NONCOMPETITIVE LEASE PRE 2005","case_type_nr":"321000","admin_state":"NV","geo_state":"NV","layer":"closed"},"geometry":{"type":"Polygon","coordinates":[[[-118.18356,39.505],[-118.17888,39.505],[-118.17421,39.505],[-118.16953,39.505],[-118.16953,39.50862],[-118.16953,39.51225],[-118.16953,39.51587],[-118.16953,39.51949],[-118.16485,39.51949],[-118.16017,39.51949],[-118.15549,39.5195],[-118.15081,39.5195],[-118.15081,39.52312],[-118.15081,39.52674],[-118.1508,39.53036],[-118.1508,39.53398],[-118.15548,39.53398],[-118.16016,39.53398],[-118.16484,39.53398],[-118.16952,39.53398],[-118.1742,39.53398],[-118.17888,39.53397],[-118.18355,39.53397],[-118.18823,39.53397],[-118.18823,39.53035],[-118.18823,39.52673],[-118.18823,39.52311],[-118.18823,39.51949],[-118.18823,39.51587],[-118.18823,39.51224],[-118.18823,39.50862],[-118.18823,39.505],[-118.18356,39.505]]]}},{"type":"Feature","properties":{"case_serial":"NVN-008908","mlrs_id":"NVNV105716506","legacy_serial":"NVN-008908","case_name":null,"disposition":"Closed","production_status":"Non-Producing","acres":2364.1,"effective_date":"1975-09-01","expiration_date":null,"case_type":"GEOTHERMAL NONCOMPETITIVE LEASE PRE 2005","case_type_nr":"321000","admin_state":"NV","geo_state":"NV","layer":"closed"},"geometry":{"type":"Polygon","coordinates":[[[-118.18819,39.5485],[-118.19287,39.5485],[-118.19755,39.5485],[-118.20223,39.5485],[-118.20694,39.5485],[-118.20694,39.54484],[-118.20694,39.54122],[-118.20694,39.53759],[-118.20694,39.53397],[-118.20226,39.53397],[-118.19758,39.53397],[-118.1929,39.53397],[-118.18823,39.53397],[-118.18355,39.53397],[-118.17888,39.53397],[-118.1742,39.53398],[-118.16952,39.53398],[-118.16952,39.5376],[-118.16951,39.54122],[-118.1695,39.54484],[-118.16949,39.5485],[-118.17416,39.5485],[-118.17884,39.5485],[-118.18352,39.5485],[-118.18819,39.5485]]]}},{"type":"Feature","properties":{"case_serial":"NVN-008964","mlrs_id":"NVNV105641771","legacy_serial":"NVN-008964","case_name":null,"disposition":"Closed","production_status":"Non-Producing","acres":1714.21,"effective_date":"1975-10-01","expiration_date":null,"case_type":"GEOTHERMAL NONCOMPETITIVE LEASE PRE 2005","case_type_nr":"321000","admin_state":"NV","geo_state":"NV","layer":"closed"},"geometry":{"type":"MultiPolygon","coordinates":[[[[-118.13902,39.69417],[-118.13433,39.69416],[-118.13434,39.69778],[-118.13434,39.7014],[-118.13434,39.70503],[-118.13434,39.70865],[-118.13434,39.71227],[-118.13434,39.71589],[-118.13434,39.71952],[-118.13434,39.72369],[-118.1372,39.72369],[-118.13903,39.72369],[-118.1419,39.72369],[-118.14372,39.72369],[-118.14659,39.72369],[-118.14841,39.72369],[-118.15128,39.72369],[-118.15309,39.72369],[-118.15309,39.71956],[-118.15309,39.71594],[-118.15309,39.71231],[-118.15309,39.70869],[-118.15309,39.70507],[-118.15309,39.70144],[-118.15308,39.69782],[-118.15308,39.6942],[-118.1484,39.69419],[-118.14371,39.69418],[-118.13902,39.69417]]],[[[-118.10616,39.70864],[-118.10147,39.70864],[-118.09917,39.70864],[-118.09918,39.7091],[-118.09929,39.71227],[-118.0993,39.71275],[-118.0994,39.71589],[-118.09942,39.71639],[-118.09952,39.71951],[-118.09954,39.72004],[-118.09966,39.72369],[-118.10146,39.72369],[-118.10435,39.72369],[-118.10615,39.72369],[-118.10904,39.72369],[-118.11085,39.72369],[-118.11374,39.72369],[-118.11554,39.72369],[-118.11554,39.7195],[-118.11554,39.71588],[-118.11085,39.71588],[-118.10616,39.71589],[-118.10616,39.71226],[-118.10616,39.70864]]]]}},{"type":"Feature","properties":{"case_serial":"NVN-008970","mlrs_id":"NVNV105435043","legacy_serial":"NVN-008970","case_name":null,"disposition":"Closed","production_status":"Non-Producing","acres":1920.0,"effective_date":"1975-10-01","expiration_date":null,"case_type":"GEOTHERMAL NONCOMPETITIVE LEASE PRE 2005","case_type_nr":"321000","admin_state":"NV","geo_state":"NV","layer":"closed"},"geometry":{"type":"Polygon","coordinates":[[[-118.11557,39.66513],[-118.11556,39.66875],[-118.11556,39.67238],[-118.11556,39.67601],[-118.11556,39.67963],[-118.12025,39.67964],[-118.12494,39.67965],[-118.12964,39.67966],[-118.13433,39.67967],[-118.13433,39.68329],[-118.13433,39.68691],[-118.13433,39.69054],[-118.13433,39.69416],[-118.13902,39.69417],[-118.14371,39.69418],[-118.1484,39.69419],[-118.15308,39.6942],[-118.15308,39.69058],[-118.15308,39.68695],[-118.15308,39.68333],[-118.15308,39.67971],[-118.15307,39.67609],[-118.15307,39.67246],[-118.15307,39.66884],[-118.15307,39.66522],[-118.14838,39.66521],[-118.1437,39.6652],[-118.13901,39.66519],[-118.13432,39.66517],[-118.12964,39.66516],[-118.12495,39.66515],[-118.12026,39.66514],[-118.11557,39.66513]]]}},{"type":"Feature","properties":{"case_serial":"NVN-011566","mlrs_id":"NVNV105576931","legacy_serial":"NVN-011566","case_name":null,"disposition":"Closed","production_status":"Non-Producing","acres":1960.0,"effective_date":"1975-09-01","expiration_date":null,"case_type":"GEOTHERMAL NONCOMPETITIVE LEASE PRE 2005","case_type_nr":"321000","admin_state":"NV","geo_state":"NV","layer":"closed"},"geometry":{"type":"MultiPolygon","coordinates":[[[[-118.11346,39.46152],[-118.11165,39.46152],[-118.10879,39.46152],[-118.10698,39.46152],[-118.10411,39.46152],[-118.1023,39.46152],[-118.10082,39.46152],[-118.09944,39.46152],[-118.09888,39.46152],[-118.09763,39.46152],[-118.09476,39.46152],[-118.09476,39.46515],[-118.09476,39.46618],[-118.09476,39.467],[-118.09476,39.46794],[-118.09476,39.4681],[-118.09475,39.46877],[-118.09475,39.46973],[-118.09475,39.47033],[-118.09475,39.47061],[-118.09475,39.47111],[-118.09475,39.47239],[-118.09475,39.47509],[-118.09474,39.47569],[-118.09474,39.47602],[-118.09474,39.47742],[-118.09474,39.47815],[-118.09474,39.47964],[-118.09474,39.48186],[-118.09474,39.4821],[-118.09473,39.48297],[-118.09473,39.48326],[-118.09473,39.48689],[-118.09472,39.49051],[-118.0994,39.49051],[-118.10407,39.4905],[-118.10875,39.4905],[-118.11343,39.4905],[-118.11343,39.48688],[-118.11343,39.48325],[-118.11344,39.4797],[-118.11344,39.47963],[-118.11344,39.47717],[-118.11344,39.47601],[-118.11344,39.47489],[-118.11345,39.47373],[-118.11345,39.47239],[-118.11345,39.46877],[-118.11345,39.46515],[-118.11346,39.46152]]],[[[-118.10873,39.505],[-118.10405,39.505],[-118.09938,39.505],[-118.0947,39.50501],[-118.0947,39.50863],[-118.09469,39.51226],[-118.09469,39.51588],[-118.09468,39.5195],[-118.09936,39.5195],[-118.10404,39.5195],[-118.10871,39.51949],[-118.11339,39.51949],[-118.11339,39.51587],[-118.1134,39.51224],[-118.1134,39.51217],[-118.1134,39.50862],[-118.11341,39.50499],[-118.10873,39.505]]]]}},{"type":"Feature","properties":{"case_serial":"NVN-016792","mlrs_id":"NVNV105575125","legacy_serial":"NVN-016792","case_name":null,"disposition":"Closed","production_status":"Non-Producing","acres":2560.0,"effective_date":"1977-11-01","expiration_date":null,"case_type":"GEOTHERMAL NONCOMPETITIVE LEASE PRE 2005","case_type_nr":"321000","admin_state":"NV","geo_state":"NV","layer":"closed"},"geometry":{"type":"Polygon","coordinates":[[[-118.11302,39.47601],[-118.10877,39.47601],[-118.10409,39.47601],[-118.09942,39.47601],[-118.09474,39.47602],[-118.09474,39.47742],[-118.09474,39.47815],[-118.09474,39.47964],[-118.09474,39.48186],[-118.09474,39.4821],[-118.09473,39.48297],[-118.09473,39.48326],[-118.09473,39.48689],[-118.09472,39.49051],[-118.09472,39.49413],[-118.09471,39.49776],[-118.09471,39.50138],[-118.0947,39.50501],[-118.09938,39.505],[-118.10405,39.505],[-118.10873,39.505],[-118.11341,39.50499],[-118.11808,39.505],[-118.12276,39.505],[-118.12744,39.505],[-118.13211,39.505],[-118.13679,39.505],[-118.14147,39.505],[-118.14615,39.505],[-118.15082,39.50501],[-118.15083,39.50138],[-118.15083,39.49776],[-118.15083,39.49414],[-118.15083,39.49051],[-118.14616,39.49051],[-118.14148,39.49051],[-118.1368,39.49051],[-118.13213,39.4905],[-118.12745,39.4905],[-118.12278,39.4905],[-118.1181,39.4905],[-118.11343,39.4905],[-118.11343,39.48688],[-118.11343,39.48325],[-118.11344,39.4797],[-118.11344,39.47963],[-118.11344,39.47717],[-118.11344,39.47601],[-118.11302,39.47601]]]}},{"type":"Feature","properties":{"case_serial":"NVN-016794","mlrs_id":"NVNV105441596","legacy_serial":"NVN-016794","case_name":null,"disposition":"Closed","production_status":"Non-Producing","acres":2560.0,"effective_date":"1977-11-01","expiration_date":null,"case_type":"GEOTHERMAL NONCOMPETITIVE LEASE PRE 2005","case_type_nr":"321000","admin_state":"NV","geo_state":"NV","layer":"closed"},"geometry":{"type":"Polygon","coordinates":[[[-118.10405,39.505],[-118.09938,39.505],[-118.0947,39.50501],[-118.0947,39.50863],[-118.09469,39.51226],[-118.09469,39.51588],[-118.09468,39.5195],[-118.09468,39.52313],[-118.09467,39.52675],[-118.09467,39.53038],[-118.09466,39.534],[-118.09934,39.534],[-118.10402,39.53399],[-118.10869,39.53399],[-118.11337,39.53399],[-118.11805,39.53399],[-118.12273,39.53399],[-118.12741,39.53399],[-118.13208,39.53399],[-118.13676,39.53399],[-118.14144,39.53399],[-118.14612,39.53399],[-118.1508,39.53398],[-118.1508,39.53036],[-118.15081,39.52674],[-118.15081,39.52312],[-118.15081,39.5195],[-118.14613,39.5195],[-118.14145,39.5195],[-118.13678,39.51949],[-118.1321,39.51949],[-118.12742,39.51949],[-118.12274,39.51949],[-118.11807,39.51949],[-118.11339,39.51949],[-118.11339,39.51587],[-118.1134,39.51224],[-118.1134,39.51217],[-118.1134,39.50862],[-118.11341,39.50499],[-118.10873,39.505],[-118.10405,39.505]]]}},{"type":"Feature","properties":{"case_serial":"NVN-016795","mlrs_id":"NVNV105577310","legacy_serial":"NVN-016795","case_name":null,"disposition":"Closed","production_status":"Non-Producing","acres":2560.0,"effective_date":"1977-11-01","expiration_date":null,"case_type":"GEOTHERMAL NONCOMPETITIVE LEASE PRE 2005","case_type_nr":"321000","admin_state":"NV","geo_state":"NV","layer":"closed"},"geometry":{"type":"Polygon","coordinates":[[[-118.16486,39.49051],[-118.16019,39.49051],[-118.15551,39.49051],[-118.15083,39.49051],[-118.15083,39.49414],[-118.15083,39.49776],[-118.15083,39.50138],[-118.15082,39.50501],[-118.14615,39.505],[-118.14147,39.505],[-118.13679,39.505],[-118.13211,39.505],[-118.12744,39.505],[-118.12276,39.505],[-118.11808,39.505],[-118.11341,39.50499],[-118.1134,39.50862],[-118.1134,39.51217],[-118.1134,39.51224],[-118.11339,39.51587],[-118.11339,39.51949],[-118.11807,39.51949],[-118.12274,39.51949],[-118.12742,39.51949],[-118.1321,39.51949],[-118.13678,39.51949],[-118.14145,39.5195],[-118.14613,39.5195],[-118.15081,39.5195],[-118.15549,39.5195],[-118.16017,39.51949],[-118.16485,39.51949],[-118.16953,39.51949],[-118.16953,39.51587],[-118.16953,39.51225],[-118.16953,39.50862],[-118.16953,39.505],[-118.16954,39.50138],[-118.16954,39.49776],[-118.16954,39.49414],[-118.16954,39.49051],[-118.16486,39.49051]]]}},{"type":"Feature","properties":{"case_serial":"NVN-025873","mlrs_id":"NVNV105581525","legacy_serial":"NVN-025873","case_name":null,"disposition":"Closed","production_status":"Non-Producing","acres":640.0,"effective_date":"1980-02-01","expiration_date":null,"case_type":"GEOTHERMAL NONCOMPETITIVE LEASE PRE 2005","case_type_nr":"321000","admin_state":"NV","geo_state":"NV","layer":"closed"},"geometry":{"type":"Polygon","coordinates":[[[-118.13208,39.56661],[-118.13208,39.57024],[-118.13208,39.57386],[-118.13208,39.57748],[-118.13676,39.57748],[-118.14144,39.57748],[-118.14612,39.57749],[-118.1508,39.57749],[-118.1508,39.57386],[-118.1508,39.57024],[-118.15079,39.56662],[-118.15079,39.56299],[-118.14611,39.56299],[-118.14143,39.56299],[-118.13675,39.56299],[-118.13208,39.56299],[-118.13208,39.56661]]]}},{"type":"Feature","properties":{"case_serial":"NVN-025874","mlrs_id":"NVNV105581781","legacy_serial":"NVN-025874","case_name":null,"disposition":"Closed","production_status":"Non-Producing","acres":640.0,"effective_date":"1980-03-01","expiration_date":null,"case_type":"GEOTHERMAL NONCOMPETITIVE LEASE PRE 2005","case_type_nr":"321000","admin_state":"NV","geo_state":"NV","layer":"closed"},"geometry":{"type":"Polygon","coordinates":[[[-118.1274,39.56299],[-118.12272,39.56299],[-118.11804,39.563],[-118.11336,39.563],[-118.11336,39.56662],[-118.11336,39.57024],[-118.11336,39.57386],[-118.11336,39.57749],[-118.11804,39.57749],[-118.12272,39.57748],[-118.1274,39.57748],[-118.13208,39.57748],[-118.13208,39.57386],[-118.13208,39.57024],[-118.13208,39.56661],[-118.13208,39.56299],[-118.1274,39.56299]]]}},{"type":"Feature","properties":{"case_serial":"NVN-025875","mlrs_id":"NVNV105500724","legacy_serial":"NVN-025875","case_name":null,"disposition":"Closed","production_status":"Non-Producing","acres":640.0,"effective_date":"1980-02-01","expiration_date":null,"case_type":"GEOTHERMAL NONCOMPETITIVE LEASE PRE 2005","case_type_nr":"321000","admin_state":"NV","geo_state":"NV","layer":"closed"},"geometry":{"type":"Polygon","coordinates":[[[-118.13207,39.55212],[-118.13207,39.55575],[-118.13207,39.55937],[-118.13208,39.56299],[-118.13675,39.56299],[-118.14143,39.56299],[-118.14611,39.56299],[-118.15079,39.56299],[-118.15079,39.55937],[-118.15078,39.55575],[-118.15078,39.55212],[-118.15078,39.5485],[-118.1461,39.5485],[-118.14142,39.5485],[-118.13675,39.5485],[-118.13207,39.5485],[-118.13207,39.55212]]]}},{"type":"Feature","properties":{"case_serial":"NVN-025876","mlrs_id":"NVNV105584893","legacy_serial":"NVN-025876","case_name":null,"disposition":"Closed","production_status":"Non-Producing","acres":640.0,"effective_date":"1980-02-01","expiration_date":null,"case_type":"GEOTHERMAL NONCOMPETITIVE LEASE PRE 2005","case_type_nr":"321000","admin_state":"NV","geo_state":"NV","layer":"closed"},"geometry":{"type":"Polygon","coordinates":[[[-118.13207,39.5485],[-118.12739,39.5485],[-118.12271,39.5485],[-118.11803,39.5485],[-118.11335,39.5485],[-118.11335,39.55212],[-118.11336,39.55575],[-118.11336,39.55937],[-118.11336,39.563],[-118.11804,39.563],[-118.12272,39.56299],[-118.1274,39.56299],[-118.13208,39.56299],[-118.13207,39.55937],[-118.13207,39.55575],[-118.13207,39.55212],[-118.13207,39.5485]]]}},{"type":"Feature","properties":{"case_serial":"NVN-029861","mlrs_id":"NVNV105591070","legacy_serial":"NVN-029861","case_name":null,"disposition":"Closed","production_status":"Non-Producing","acres":2564.04,"effective_date":"1982-10-01","expiration_date":null,"case_type":"GEOTHERMAL NONCOMPETITIVE LEASE PRE 2005","case_type_nr":"321000","admin_state":"NV","geo_state":"NV","layer":"closed"},"geometry":{"type":"Polygon","coordinates":[[[-118.11337,39.53399],[-118.10869,39.53399],[-118.10402,39.53399],[-118.09934,39.534],[-118.09466,39.534],[-118.09466,39.53763],[-118.09465,39.54125],[-118.09465,39.54488],[-118.09464,39.5485],[-118.09932,39.5485],[-118.104,39.5485],[-118.10868,39.5485],[-118.11335,39.5485],[-118.11803,39.5485],[-118.12271,39.5485],[-118.12739,39.5485],[-118.13207,39.5485],[-118.13675,39.5485],[-118.14142,39.5485],[-118.1461,39.5485],[-118.15078,39.5485],[-118.15546,39.5485],[-118.16013,39.5485],[-118.16481,39.5485],[-118.16949,39.5485],[-118.1695,39.54484],[-118.16951,39.54122],[-118.16952,39.5376],[-118.16952,39.53398],[-118.16484,39.53398],[-118.16016,39.53398],[-118.15548,39.53398],[-118.1508,39.53398],[-118.14612,39.53399],[-118.14144,39.53399],[-118.13676,39.53399],[-118.13208,39.53399],[-118.12741,39.53399],[-118.12273,39.53399],[-118.11805,39.53399],[-118.11337,39.53399]]]}},{"type":"Feature","properties":{"case_serial":"NVN-029863","mlrs_id":"NVNV105638635","legacy_serial":"NVN-029863","case_name":null,"disposition":"Closed","production_status":"Non-Producing","acres":2523.6,"effective_date":"1981-02-01","expiration_date":null,"case_type":"GEOTHERMAL NONCOMPETITIVE LEASE PRE 2005","case_type_nr":"321000","admin_state":"NV","geo_state":"NV","layer":"closed"},"geometry":{"type":"Polygon","coordinates":[[[-118.09053,39.50501],[-118.08585,39.50501],[-118.08118,39.50501],[-118.07651,39.50502],[-118.07183,39.50501],[-118.06716,39.50501],[-118.06249,39.505],[-118.05782,39.505],[-118.05782,39.50862],[-118.05782,39.51224],[-118.05783,39.51587],[-118.05783,39.51949],[-118.05783,39.52311],[-118.05783,39.52674],[-118.05784,39.53037],[-118.05784,39.53399],[-118.06251,39.534],[-118.06718,39.53401],[-118.07185,39.53401],[-118.07652,39.53402],[-118.0812,39.53402],[-118.08587,39.53401],[-118.09054,39.53401],[-118.09466,39.534],[-118.09467,39.53038],[-118.09467,39.52675],[-118.09468,39.52313],[-118.09468,39.5195],[-118.09469,39.51588],[-118.09469,39.51226],[-118.0947,39.50863],[-118.0947,39.50501],[-118.09053,39.50501]]]}},{"type":"Feature","properties":{"case_serial":"NVN-038394","mlrs_id":"NVNV105441040","legacy_serial":"NVN-038394","case_name":null,"disposition":"Closed","production_status":"Non-Producing","acres":2230.0,"effective_date":null,"expiration_date":null,"case_type":"GEOTHERMAL NONCOMPETITIVE LEASE PRE 2005","case_type_nr":"321000","admin_state":"NV","geo_state":"NV","layer":"closed"},"geometry":{"type":"Polygon","coordinates":[[[-118.14616,39.63618],[-118.14368,39.63618],[-118.14369,39.6398],[-118.14369,39.64343],[-118.14369,39.64706],[-118.14369,39.65069],[-118.13901,39.65068],[-118.13432,39.65066],[-118.13432,39.65429],[-118.13432,39.65792],[-118.13432,39.66155],[-118.13432,39.66517],[-118.13433,39.6688],[-118.13433,39.67242],[-118.13433,39.67604],[-118.13433,39.67967],[-118.13902,39.67968],[-118.1437,39.67969],[-118.14839,39.6797],[-118.15308,39.67971],[-118.15307,39.67609],[-118.15307,39.67246],[-118.15307,39.66884],[-118.15307,39.66522],[-118.15307,39.66159],[-118.15307,39.65796],[-118.15306,39.65434],[-118.15306,39.65071],[-118.15775,39.6507],[-118.16243,39.65069],[-118.16712,39.65068],[-118.1718,39.65067],[-118.1718,39.64705],[-118.1718,39.64343],[-118.17179,39.63981],[-118.17179,39.63618],[-118.16959,39.63618],[-118.16711,39.63618],[-118.16491,39.63618],[-118.16242,39.63618],[-118.16022,39.63618],[-118.15774,39.63618],[-118.15554,39.63618],[-118.15305,39.63618],[-118.15085,39.63618],[-118.14837,39.63618],[-118.14616,39.63618]],[[-118.14838,39.65251],[-118.14603,39.65251],[-118.14603,39.65069],[-118.14838,39.6507],[-118.14838,39.65251]]]}},{"type":"Feature","properties":{"case_serial":"NVN-038395","mlrs_id":"NVNV105588314","legacy_serial":"NVN-038395","case_name":null,"disposition":"Closed","production_status":"Non-Producing","acres":2225.95,"effective_date":null,"expiration_date":null,"case_type":"GEOTHERMAL NONCOMPETITIVE LEASE PRE 2005","case_type_nr":"321000","admin_state":"NV","geo_state":"NV","layer":"closed"},"geometry":{"type":"Polygon","coordinates":[[[-118.09765,39.66153],[-118.09765,39.66169],[-118.09776,39.66515],[-118.10151,39.66515],[-118.1062,39.66514],[-118.11088,39.66513],[-118.11557,39.66513],[-118.11556,39.66875],[-118.11556,39.67238],[-118.11556,39.67601],[-118.11556,39.67963],[-118.11556,39.68326],[-118.11555,39.68688],[-118.11555,39.6905],[-118.11555,39.69413],[-118.12025,39.69414],[-118.12494,39.69414],[-118.12964,39.69415],[-118.13433,39.69416],[-118.13433,39.69054],[-118.13433,39.68691],[-118.13433,39.68329],[-118.13433,39.67967],[-118.13433,39.67604],[-118.13433,39.67242],[-118.13433,39.6688],[-118.13432,39.66517],[-118.13432,39.66155],[-118.13432,39.65792],[-118.13432,39.65429],[-118.13432,39.65066],[-118.12963,39.65066],[-118.12495,39.65065],[-118.12026,39.65065],[-118.11557,39.65064],[-118.11557,39.65427],[-118.11557,39.65789],[-118.11089,39.65789],[-118.1062,39.6579],[-118.10151,39.6579],[-118.09753,39.6579],[-118.09754,39.65804],[-118.09765,39.66153]]]}},{"type":"Feature","properties":{"case_serial":"NVN-038396","mlrs_id":"NVNV105640072","legacy_serial":"NVN-038396","case_name":null,"disposition":"Closed","production_status":"Non-Producing","acres":1920.0,"effective_date":"1984-09-01","expiration_date":null,"case_type":"GEOTHERMAL NONCOMPETITIVE LEASE PRE 2005","case_type_nr":"321000","admin_state":"NV","geo_state":"NV","layer":"closed"},"geometry":{"type":"Polygon","coordinates":[[[-118.11556,39.68326],[-118.11556,39.67963],[-118.11087,39.67964],[-118.10618,39.67964],[-118.10149,39.67964],[-118.10148,39.68327],[-118.10148,39.68689],[-118.10148,39.69052],[-118.10148,39.69414],[-118.0987,39.69415],[-118.09871,39.69451],[-118.09882,39.69777],[-118.09883,39.69816],[-118.09893,39.7014],[-118.09895,39.70181],[-118.09905,39.70502],[-118.09906,39.70545],[-118.09917,39.70864],[-118.09918,39.7091],[-118.09929,39.71227],[-118.0993,39.71275],[-118.0994,39.71589],[-118.09942,39.71639],[-118.09952,39.71951],[-118.09954,39.72004],[-118.09966,39.72369],[-118.10146,39.72369],[-118.10435,39.72369],[-118.10615,39.72369],[-118.10904,39.72369],[-118.11085,39.72369],[-118.11374,39.72369],[-118.11554,39.72369],[-118.11554,39.7195],[-118.11554,39.71588],[-118.11085,39.71588],[-118.10616,39.71589],[-118.10616,39.71226],[-118.10616,39.70864],[-118.11085,39.70863],[-118.11554,39.70863],[-118.12024,39.70863],[-118.12494,39.70864],[-118.12964,39.70864],[-118.13434,39.70865],[-118.13434,39.70503],[-118.13434,39.7014],[-118.13434,39.69778],[-118.13433,39.69416],[-118.12964,39.69415],[-118.12494,39.69414],[-118.12025,39.69414],[-118.11555,39.69413],[-118.11555,39.6905],[-118.11555,39.68688],[-118.11556,39.68326]]]}},{"type":"Feature","properties":{"case_serial":"NVN-039354","mlrs_id":"NVNV105582991","legacy_serial":"NVN-039354","case_name":null,"disposition":"Closed","production_status":"Non-Producing","acres":2567.83,"effective_date":null,"expiration_date":null,"case_type":"GEOTHERMAL NONCOMPETITIVE LEASE PRE 2005","case_type_nr":"321000","admin_state":"NV","geo_state":"NV","layer":"closed"},"geometry":{"type":"MultiPolygon","coordinates":[[[[-118.08054,39.69431],[-118.08054,39.69793],[-118.08055,39.70155],[-118.08052,39.70522],[-118.0805,39.70889],[-118.08053,39.71248],[-118.08055,39.71607],[-118.08067,39.7198],[-118.08079,39.72356],[-118.08555,39.72359],[-118.09031,39.72362],[-118.09507,39.72366],[-118.09966,39.72369],[-118.09954,39.72004],[-118.09952,39.71951],[-118.09942,39.71639],[-118.0994,39.71589],[-118.0993,39.71275],[-118.09929,39.71227],[-118.09918,39.7091],[-118.09917,39.70864],[-118.09906,39.70545],[-118.09905,39.70502],[-118.09895,39.70181],[-118.09893,39.7014],[-118.09883,39.69816],[-118.09882,39.69777],[-118.09871,39.69451],[-118.09415,39.69452],[-118.08947,39.69452],[-118.085,39.69442],[-118.08054,39.69431]]],[[[-118.13434,39.70865],[-118.12964,39.70864],[-118.12494,39.70864],[-118.12024,39.70863],[-118.11554,39.70863],[-118.11554,39.71225],[-118.11554,39.71588],[-118.11554,39.7195],[-118.11554,39.72369],[-118.11843,39.72369],[-118.12024,39.72369],[-118.12313,39.72369],[-118.12494,39.72369],[-118.12782,39.72369],[-118.12964,39.72369],[-118.13251,39.72369],[-118.13434,39.72369],[-118.13434,39.71952],[-118.13434,39.71589],[-118.13434,39.71227],[-118.13434,39.70865]]],[[[-118.13903,39.72369],[-118.1372,39.72369],[-118.1373,39.73817],[-118.15608,39.73817],[-118.15598,39.72369],[-118.15309,39.72369],[-118.15128,39.72369],[-118.14841,39.72369],[-118.14659,39.72369],[-118.14372,39.72369],[-118.1419,39.72369],[-118.13903,39.72369]]]]}},{"type":"Feature","properties":{"case_serial":"NVN-039357","mlrs_id":"NVNV105497025","legacy_serial":"NVN-039357","case_name":null,"disposition":"Closed","production_status":"Non-Producing","acres":640.0,"effective_date":"1986-09-01","expiration_date":null,"case_type":"GEOTHERMAL NONCOMPETITIVE LEASE PRE 2005","case_type_nr":"321000","admin_state":"NV","geo_state":"NV","layer":"closed"},"geometry":{"type":"Polygon","coordinates":[[[-118.09464,39.56662],[-118.09464,39.57024],[-118.09464,39.57386],[-118.09464,39.57748],[-118.09932,39.57748],[-118.104,39.57749],[-118.10868,39.57749],[-118.11336,39.57749],[-118.11336,39.57386],[-118.11336,39.57024],[-118.11336,39.56662],[-118.11336,39.563],[-118.10868,39.563],[-118.104,39.563],[-118.09932,39.563],[-118.09464,39.563],[-118.09464,39.56662]]]}},{"type":"Feature","properties":{"case_serial":"NVN-039358","mlrs_id":"NVNV105579689","legacy_serial":"NVN-039358","case_name":null,"disposition":"Closed","production_status":"Non-Producing","acres":1920.0,"effective_date":"1985-08-01","expiration_date":null,"case_type":"GEOTHERMAL NONCOMPETITIVE LEASE PRE 2005","case_type_nr":"321000","admin_state":"NV","geo_state":"NV","layer":"closed"},"geometry":{"type":"Polygon","coordinates":[[[-118.13207,39.5485],[-118.12739,39.5485],[-118.12271,39.5485],[-118.11803,39.5485],[-118.11335,39.5485],[-118.11335,39.55212],[-118.11336,39.55575],[-118.11336,39.55937],[-118.11336,39.563],[-118.11804,39.563],[-118.12272,39.56299],[-118.1274,39.56299],[-118.13208,39.56299],[-118.13208,39.56661],[-118.13208,39.57024],[-118.13208,39.57386],[-118.13208,39.57748],[-118.13676,39.57748],[-118.14144,39.57748],[-118.14612,39.57749],[-118.1508,39.57749],[-118.1508,39.57386],[-118.1508,39.57024],[-118.15079,39.56662],[-118.15079,39.56299],[-118.15079,39.55937],[-118.15078,39.55575],[-118.15078,39.55212],[-118.15078,39.5485],[-118.1461,39.5485],[-118.14142,39.5485],[-118.13675,39.5485],[-118.13207,39.5485]]]}},{"type":"Feature","properties":{"case_serial":"NVN-039361","mlrs_id":"NVNV105577916","legacy_serial":"NVN-039361","case_name":null,"disposition":"Closed","production_status":"Non-Producing","acres":840.0,"effective_date":"1986-09-01","expiration_date":null,"case_type":"GEOTHERMAL NONCOMPETITIVE LEASE PRE 2005","case_type_nr":"321000","admin_state":"NV","geo_state":"NV","layer":"closed"},"geometry":{"type":"Polygon","coordinates":[[[-118.16485,39.5811],[-118.16484,39.57748],[-118.16016,39.57748],[-118.15548,39.57749],[-118.1508,39.57749],[-118.15081,39.58111],[-118.15081,39.58473],[-118.15081,39.58836],[-118.15081,39.59198],[-118.1555,39.59198],[-118.16018,39.59197],[-118.16486,39.59197],[-118.16954,39.59197],[-118.17891,39.59197],[-118.18829,39.59197],[-118.18827,39.57748],[-118.16952,39.57748],[-118.16953,39.5811],[-118.16485,39.5811]]]}},{"type":"Feature","properties":{"case_serial":"NVN-039362","mlrs_id":"NVNV105711850","legacy_serial":"NVN-039362","case_name":null,"disposition":"Closed","production_status":"Non-Producing","acres":2560.0,"effective_date":null,"expiration_date":null,"case_type":"GEOTHERMAL NONCOMPETITIVE LEASE PRE 2005","case_type_nr":"321000","admin_state":"NV","geo_state":"NV","layer":"closed"},"geometry":{"type":"MultiPolygon","coordinates":[[[[-118.14612,39.57749],[-118.14144,39.57748],[-118.13676,39.57748],[-118.13676,39.58111],[-118.13677,39.58473],[-118.13677,39.58835],[-118.13677,39.59197],[-118.13677,39.5956],[-118.13677,39.59922],[-118.13678,39.60284],[-118.13678,39.60646],[-118.14146,39.60646],[-118.14614,39.60647],[-118.15083,39.60647],[-118.15551,39.60647],[-118.16019,39.60646],[-118.16487,39.60646],[-118.16956,39.60646],[-118.16955,39.60284],[-118.16955,39.59921],[-118.16954,39.59559],[-118.16954,39.59197],[-118.16486,39.59197],[-118.16018,39.59197],[-118.1555,39.59198],[-118.15081,39.59198],[-118.15081,39.58836],[-118.15081,39.58473],[-118.15081,39.58111],[-118.1508,39.57749],[-118.14612,39.57749]]],[[[-118.09932,39.57748],[-118.09464,39.57748],[-118.09464,39.58111],[-118.09464,39.58473],[-118.09464,39.58836],[-118.09464,39.59198],[-118.09932,39.59198],[-118.104,39.59198],[-118.10868,39.59198],[-118.11336,39.59198],[-118.11336,39.5956],[-118.11336,39.59923],[-118.11337,39.60285],[-118.11337,39.60647],[-118.11805,39.60647],[-118.11805,39.60285],[-118.11805,39.59922],[-118.11805,39.5956],[-118.11804,39.59198],[-118.11804,39.58835],[-118.11804,39.58473],[-118.11804,39.58111],[-118.11804,39.57749],[-118.11336,39.57749],[-118.10868,39.57749],[-118.104,39.57749],[-118.09932,39.57748]]]]}},{"type":"Feature","properties":{"case_serial":"NVN-039363","mlrs_id":"NVNV105712207","legacy_serial":"NVN-039363","case_name":null,"disposition":"Closed","production_status":"Non-Producing","acres":1920.0,"effective_date":"1986-09-01","expiration_date":null,"case_type":"GEOTHERMAL NONCOMPETITIVE LEASE PRE 2005","case_type_nr":"321000","admin_state":"NV","geo_state":"NV","layer":"closed"},"geometry":{"type":"Polygon","coordinates":[[[-118.16956,39.60646],[-118.16487,39.60646],[-118.16019,39.60646],[-118.15551,39.60647],[-118.15083,39.60647],[-118.14614,39.60647],[-118.14146,39.60646],[-118.13678,39.60646],[-118.1321,39.60646],[-118.1321,39.61008],[-118.1321,39.61371],[-118.1321,39.61733],[-118.1321,39.62095],[-118.13679,39.62095],[-118.14147,39.62096],[-118.14615,39.62096],[-118.15084,39.62096],[-118.15552,39.62096],[-118.16021,39.62095],[-118.16489,39.62095],[-118.16958,39.62095],[-118.18832,39.62096],[-118.1883,39.60646],[-118.18829,39.59197],[-118.17891,39.59197],[-118.16954,39.59197],[-118.16954,39.59559],[-118.16955,39.59921],[-118.16955,39.60284],[-118.16956,39.60646]]]}},{"type":"Feature","properties":{"case_serial":"NVN-039364","mlrs_id":"NVNV105573163","legacy_serial":"NVN-039364","case_name":null,"disposition":"Closed","production_status":"Non-Producing","acres":1344.76,"effective_date":"1986-09-01","expiration_date":null,"case_type":"GEOTHERMAL NONCOMPETITIVE LEASE PRE 2005","case_type_nr":"321000","admin_state":"NV","geo_state":"NV","layer":"closed"},"geometry":{"type":"Polygon","coordinates":[[[-118.13679,39.62095],[-118.1321,39.62095],[-118.1321,39.62458],[-118.1321,39.6282],[-118.1321,39.63182],[-118.13211,39.63617],[-118.13432,39.63617],[-118.13679,39.63617],[-118.139,39.63617],[-118.14148,39.63617],[-118.14368,39.63618],[-118.14616,39.63618],[-118.14837,39.63618],[-118.15085,39.63618],[-118.15305,39.63618],[-118.15554,39.63618],[-118.15774,39.63618],[-118.16022,39.63618],[-118.16242,39.63618],[-118.16491,39.63618],[-118.16711,39.63618],[-118.16959,39.63618],[-118.16959,39.63181],[-118.16958,39.62819],[-118.16958,39.62457],[-118.16958,39.62095],[-118.16489,39.62095],[-118.16021,39.62095],[-118.15552,39.62096],[-118.15084,39.62096],[-118.14615,39.62096],[-118.14147,39.62096],[-118.13679,39.62095]]]}},{"type":"Feature","properties":{"case_serial":"NVN-040373","mlrs_id":"NVNV105641719","legacy_serial":"NVN-040373","case_name":null,"disposition":"Closed","production_status":"Non-Producing","acres":640.0,"effective_date":null,"expiration_date":null,"case_type":"GEOTHERMAL NONCOMPETITIVE LEASE PRE 2005","case_type_nr":"321000","admin_state":"NV","geo_state":"NV","layer":"closed"},"geometry":{"type":"Polygon","coordinates":[[[-118.1274,39.56299],[-118.12272,39.56299],[-118.11804,39.563],[-118.11336,39.563],[-118.11336,39.56662],[-118.11336,39.57024],[-118.11336,39.57386],[-118.11336,39.57749],[-118.11804,39.57749],[-118.12272,39.57748],[-118.1274,39.57748],[-118.13208,39.57748],[-118.13208,39.57386],[-118.13208,39.57024],[-118.13208,39.56661],[-118.13208,39.56299],[-118.1274,39.56299]]]}},{"type":"Feature","properties":{"case_serial":"NVN-040374","mlrs_id":"NVNV105717767","legacy_serial":"NVN-040374","case_name":null,"disposition":"Closed","production_status":"Non-Producing","acres":2560.0,"effective_date":"1986-06-01","expiration_date":null,"case_type":"GEOTHERMAL NONCOMPETITIVE LEASE PRE 2005","case_type_nr":"321000","admin_state":"NV","geo_state":"NV","layer":"closed"},"geometry":{"type":"Polygon","coordinates":[[[-118.13208,39.57748],[-118.13208,39.5811],[-118.13209,39.58473],[-118.13209,39.58835],[-118.13209,39.59197],[-118.12741,39.59197],[-118.12273,39.59198],[-118.11804,39.59198],[-118.11336,39.59198],[-118.11336,39.5956],[-118.11336,39.59923],[-118.11337,39.60285],[-118.11337,39.60647],[-118.11805,39.60647],[-118.12273,39.60647],[-118.12741,39.60646],[-118.1321,39.60646],[-118.13678,39.60646],[-118.14146,39.60646],[-118.14614,39.60647],[-118.15083,39.60647],[-118.15551,39.60647],[-118.16019,39.60646],[-118.16487,39.60646],[-118.16956,39.60646],[-118.16955,39.60284],[-118.16955,39.59921],[-118.16954,39.59559],[-118.16954,39.59197],[-118.16486,39.59197],[-118.16018,39.59197],[-118.1555,39.59198],[-118.15081,39.59198],[-118.15081,39.58836],[-118.15081,39.58473],[-118.15081,39.58111],[-118.1508,39.57749],[-118.14612,39.57749],[-118.14144,39.57748],[-118.13676,39.57748],[-118.13208,39.57748]]]}},{"type":"Feature","properties":{"case_serial":"NVN-040375","mlrs_id":"NVNV105582060","legacy_serial":"NVN-040375","case_name":null,"disposition":"Closed","production_status":"Non-Producing","acres":1280.0,"effective_date":"1986-06-01","expiration_date":null,"case_type":"GEOTHERMAL NONCOMPETITIVE LEASE PRE 2005","case_type_nr":"321000","admin_state":"NV","geo_state":"NV","layer":"closed"},"geometry":{"type":"Polygon","coordinates":[[[-118.1274,39.57748],[-118.12272,39.57748],[-118.11804,39.57749],[-118.11336,39.57749],[-118.10868,39.57749],[-118.104,39.57749],[-118.09932,39.57748],[-118.09464,39.57748],[-118.09464,39.58111],[-118.09464,39.58473],[-118.09464,39.58836],[-118.09464,39.59198],[-118.09932,39.59198],[-118.104,39.59198],[-118.10868,39.59198],[-118.11336,39.59198],[-118.11804,39.59198],[-118.12273,39.59198],[-118.12741,39.59197],[-118.13209,39.59197],[-118.13209,39.58835],[-118.13209,39.58473],[-118.13208,39.5811],[-118.13208,39.57748],[-118.1274,39.57748]]]}},{"type":"Feature","properties":{"case_serial":"NVN-041044","mlrs_id":"NVNV105591102","legacy_serial":"NVN-041044","case_name":null,"disposition":"Closed","production_status":"Non-Producing","acres":1719.75,"effective_date":"1986-06-01","expiration_date":null,"case_type":"GEOTHERMAL NONCOMPETITIVE LEASE PRE 2005","case_type_nr":"321000","admin_state":"NV","geo_state":"NV","layer":"closed"},"geometry":{"type":"Polygon","coordinates":[[[-118.08562,39.58475],[-118.07659,39.58476],[-118.0766,39.59201],[-118.07663,39.6065],[-118.09464,39.60647],[-118.09932,39.60647],[-118.104,39.60647],[-118.10868,39.60647],[-118.11337,39.60647],[-118.11337,39.60285],[-118.11336,39.59923],[-118.11336,39.5956],[-118.11336,39.59198],[-118.10868,39.59198],[-118.104,39.59198],[-118.09932,39.59198],[-118.09464,39.59198],[-118.09464,39.58473],[-118.09464,39.57748],[-118.08561,39.5775],[-118.08562,39.58475]]]}},{"type":"Feature","properties":{"case_serial":"NVN-041045","mlrs_id":"NVNV105497625","legacy_serial":"NVN-041045","case_name":null,"disposition":"Closed","production_status":"Non-Producing","acres":1982.84,"effective_date":"1986-06-01","expiration_date":null,"case_type":"GEOTHERMAL NONCOMPETITIVE LEASE PRE 2005","case_type_nr":"321000","admin_state":"NV","geo_state":"NV","layer":"closed"},"geometry":{"type":"Polygon","coordinates":[[[-118.1321,39.60646],[-118.12741,39.60646],[-118.12273,39.60647],[-118.11805,39.60647],[-118.11337,39.60647],[-118.11337,39.6101],[-118.11337,39.61372],[-118.11337,39.61734],[-118.11337,39.62096],[-118.10869,39.62096],[-118.104,39.62096],[-118.09932,39.62096],[-118.09464,39.62096],[-118.09464,39.62459],[-118.09464,39.62821],[-118.09464,39.63183],[-118.09464,39.63616],[-118.09683,39.63616],[-118.09932,39.63616],[-118.10152,39.63616],[-118.10401,39.63617],[-118.10621,39.63617],[-118.10869,39.63617],[-118.11089,39.63617],[-118.11337,39.63617],[-118.11558,39.63617],[-118.11806,39.63617],[-118.12026,39.63617],[-118.12274,39.63617],[-118.12495,39.63617],[-118.12742,39.63617],[-118.12963,39.63617],[-118.13211,39.63617],[-118.1321,39.63182],[-118.1321,39.6282],[-118.1321,39.62458],[-118.1321,39.62095],[-118.1321,39.61733],[-118.1321,39.61371],[-118.1321,39.61008],[-118.1321,39.60646]]]}},{"type":"Feature","properties":{"case_serial":"NVN-041046","mlrs_id":"NVNV105583018","legacy_serial":"NVN-041046","case_name":null,"disposition":"Closed","production_status":"Non-Producing","acres":1902.0,"effective_date":"1986-06-01","expiration_date":null,"case_type":"GEOTHERMAL NONCOMPETITIVE LEASE PRE 2005","case_type_nr":"321000","admin_state":"NV","geo_state":"NV","layer":"closed"},"geometry":{"type":"Polygon","coordinates":[[[-118.09464,39.60647],[-118.07663,39.6065],[-118.07666,39.621],[-118.07671,39.63615],[-118.078,39.63616],[-118.08271,39.63616],[-118.08742,39.63616],[-118.09213,39.63616],[-118.09464,39.63616],[-118.09464,39.63183],[-118.09464,39.62821],[-118.09464,39.62459],[-118.09464,39.62096],[-118.09932,39.62096],[-118.104,39.62096],[-118.10869,39.62096],[-118.11337,39.62096],[-118.11337,39.61734],[-118.11337,39.61372],[-118.11337,39.6101],[-118.11337,39.60647],[-118.10868,39.60647],[-118.104,39.60647],[-118.09932,39.60647],[-118.09464,39.60647]]]}},{"type":"Feature","properties":{"case_serial":"NVN-042413","mlrs_id":"NVNV105589218","legacy_serial":"NVN-042413","case_name":null,"disposition":"Closed","production_status":"Non-Producing","acres":640.0,"effective_date":"1986-08-01","expiration_date":null,"case_type":"GEOTHERMAL NONCOMPETITIVE LEASE PRE 2005","case_type_nr":"321000","admin_state":"NV","geo_state":"NV","layer":"closed"},"geometry":{"type":"Polygon","coordinates":[[[-118.1274,39.56299],[-118.12272,39.56299],[-118.11804,39.563],[-118.11336,39.563],[-118.11336,39.56662],[-118.11336,39.57024],[-118.11336,39.57386],[-118.11336,39.57749],[-118.11804,39.57749],[-118.12272,39.57748],[-118.1274,39.57748],[-118.13208,39.57748],[-118.13208,39.57386],[-118.13208,39.57024],[-118.13208,39.56661],[-118.13208,39.56299],[-118.1274,39.56299]]]}},{"type":"Feature","properties":{"case_serial":"NVN-088481","mlrs_id":"NVNV105687285","legacy_serial":"NVN-088481","case_name":null,"disposition":"Closed","production_status":"Non-Producing","acres":2207.5,"effective_date":"2010-06-01","expiration_date":null,"case_type":"GEOTHERMAL NONCOMPETITIVE LEASE PRE 2005","case_type_nr":"321000","admin_state":"NV","geo_state":"NV","layer":"closed"},"geometry":{"type":"Polygon","coordinates":[[[-118.14369,39.65431],[-118.14369,39.65069],[-118.13901,39.65068],[-118.13432,39.65066],[-118.12963,39.65066],[-118.12495,39.65065],[-118.12026,39.65065],[-118.11557,39.65064],[-118.11557,39.65427],[-118.11557,39.65789],[-118.11557,39.66151],[-118.11557,39.66513],[-118.12026,39.66514],[-118.12495,39.66515],[-118.12964,39.66516],[-118.13432,39.66517],[-118.13901,39.66519],[-118.1437,39.6652],[-118.14838,39.66521],[-118.15307,39.66522],[-118.15776,39.66521],[-118.16244,39.6652],[-118.16713,39.66519],[-118.17181,39.66517],[-118.17181,39.66155],[-118.17181,39.65792],[-118.17181,39.6543],[-118.1718,39.65067],[-118.16712,39.65068],[-118.16243,39.65069],[-118.15775,39.6507],[-118.15306,39.65071],[-118.15306,39.64708],[-118.15306,39.64344],[-118.15305,39.63981],[-118.15305,39.63618],[-118.15085,39.63618],[-118.14837,39.63618],[-118.14616,39.63618],[-118.14368,39.63618],[-118.14369,39.6398],[-118.14369,39.64343],[-118.14369,39.64706],[-118.14369,39.65069],[-118.14603,39.65069],[-118.14603,39.6516],[-118.14721,39.6516],[-118.14721,39.65251],[-118.14838,39.65251],[-118.14838,39.65433],[-118.14369,39.65431]]]}},{"type":"Feature","properties":{"case_serial":"NVN-088482","mlrs_id":"NVNV105687286","legacy_serial":"NVN-088482","case_name":null,"disposition":"Closed","production_status":"Non-Producing","acres":2800.0,"effective_date":"2010-06-01","expiration_date":null,"case_type":"GEOTHERMAL NONCOMPETITIVE LEASE PRE 2005","case_type_nr":"321000","admin_state":"NV","geo_state":"NV","layer":"closed"},"geometry":{"type":"Polygon","coordinates":[[[-118.16711,39.63618],[-118.16491,39.63618],[-118.16242,39.63618],[-118.16022,39.63618],[-118.15774,39.63618],[-118.15554,39.63618],[-118.15305,39.63618],[-118.15305,39.63981],[-118.15306,39.64344],[-118.15306,39.64708],[-118.15306,39.65071],[-118.15775,39.6507],[-118.16243,39.65069],[-118.16712,39.65068],[-118.1718,39.65067],[-118.17181,39.6543],[-118.17181,39.65792],[-118.17181,39.66155],[-118.17181,39.66517],[-118.16713,39.66519],[-118.16244,39.6652],[-118.15776,39.66521],[-118.15307,39.66522],[-118.15307,39.66884],[-118.15307,39.67246],[-118.15776,39.67245],[-118.16245,39.67244],[-118.16713,39.67243],[-118.17182,39.67242],[-118.17182,39.67604],[-118.17183,39.67966],[-118.17183,39.68328],[-118.17652,39.68328],[-118.17652,39.68691],[-118.18121,39.68691],[-118.18589,39.68691],[-118.18589,39.68328],[-118.19058,39.68328],[-118.19057,39.67967],[-118.19057,39.67604],[-118.19057,39.67242],[-118.19056,39.6688],[-118.19056,39.66518],[-118.19056,39.66155],[-118.19055,39.65793],[-118.19055,39.6543],[-118.19054,39.65067],[-118.19054,39.64705],[-118.19054,39.64343],[-118.18585,39.64343],[-118.18117,39.64343],[-118.17648,39.64343],[-118.1718,39.64343],[-118.17179,39.63981],[-118.17179,39.63618],[-118.16959,39.63618],[-118.16711,39.63618]]]}},{"type":"Feature","properties":{"case_serial":"NVN-088483","mlrs_id":"NVNV105687287","legacy_serial":"NVN-088483","case_name":null,"disposition":"Closed","production_status":"Non-Producing","acres":2376.29,"effective_date":"2010-06-01","expiration_date":null,"case_type":"GEOTHERMAL NONCOMPETITIVE LEASE PRE 2005","case_type_nr":"321000","admin_state":"NV","geo_state":"NV","layer":"closed"},"geometry":{"type":"Polygon","coordinates":[[[-118.13432,39.66517],[-118.12964,39.66516],[-118.12495,39.66515],[-118.12026,39.66514],[-118.11557,39.66513],[-118.11556,39.66875],[-118.11556,39.67238],[-118.11556,39.67601],[-118.11556,39.67963],[-118.11556,39.68326],[-118.11555,39.68688],[-118.11555,39.6905],[-118.11555,39.69413],[-118.11555,39.69775],[-118.11555,39.70138],[-118.11555,39.705],[-118.11554,39.70863],[-118.11554,39.71225],[-118.11554,39.71588],[-118.11554,39.7195],[-118.11554,39.72369],[-118.11843,39.72369],[-118.12024,39.72369],[-118.12313,39.72369],[-118.12494,39.72369],[-118.12494,39.71951],[-118.12964,39.71951],[-118.12964,39.71589],[-118.12964,39.71227],[-118.12964,39.70864],[-118.12964,39.70502],[-118.12964,39.7014],[-118.12964,39.69777],[-118.12964,39.69415],[-118.13433,39.69416],[-118.13433,39.69054],[-118.13433,39.68691],[-118.13433,39.68329],[-118.13433,39.67967],[-118.13433,39.67604],[-118.13433,39.67242],[-118.13901,39.67243],[-118.1437,39.67244],[-118.1437,39.66882],[-118.1437,39.6652],[-118.13901,39.66519],[-118.13432,39.66517]]]}},{"type":"Feature","properties":{"case_serial":"NVN-088486","mlrs_id":"NVNV105687290","legacy_serial":"NVN-088486","case_name":null,"disposition":"Closed","production_status":"Non-Producing","acres":3790.25,"effective_date":"2010-06-01","expiration_date":null,"case_type":"GEOTHERMAL NONCOMPETITIVE LEASE PRE 2005","case_type_nr":"321000","admin_state":"NV","geo_state":"NV","layer":"closed"},"geometry":{"type":"MultiPolygon","coordinates":[[[[-118.0149,39.69419],[-118.0149,39.69057],[-118.01489,39.68696],[-118.0196,39.68694],[-118.0243,39.68693],[-118.02428,39.6833],[-118.02427,39.67967],[-118.02425,39.67604],[-118.02424,39.67241],[-118.02423,39.66878],[-118.02422,39.66515],[-118.01956,39.66517],[-118.0149,39.6652],[-118.01024,39.66522],[-118.01023,39.66885],[-118.01022,39.67248],[-118.01021,39.67611],[-118.00553,39.67614],[-118.00551,39.67977],[-118.00013,39.67962],[-117.99475,39.67946],[-117.99475,39.68308],[-117.98937,39.68294],[-117.98937,39.68656],[-117.984,39.68642],[-117.98401,39.69005],[-117.9794,39.69006],[-117.9794,39.69368],[-117.9747,39.6937],[-117.96998,39.69371],[-117.96527,39.69373],[-117.96528,39.69736],[-117.96528,39.70099],[-117.96528,39.70461],[-117.96528,39.70824],[-117.97001,39.70823],[-117.97473,39.70821],[-117.97944,39.70819],[-117.98405,39.70818],[-117.9895,39.70834],[-117.99495,39.7085],[-118.0004,39.70866],[-118.00585,39.70881],[-118.00578,39.70516],[-118.0057,39.70151],[-118.00559,39.69785],[-118.00547,39.6942],[-118.01018,39.6942],[-118.0149,39.69419]]],[[[-118.01981,39.70883],[-118.02434,39.70879],[-118.02896,39.70879],[-118.03358,39.70879],[-118.0382,39.70878],[-118.04282,39.70878],[-118.04302,39.70514],[-118.04322,39.7015],[-118.03845,39.7015],[-118.03369,39.7015],[-118.02901,39.70149],[-118.02434,39.70149],[-118.02433,39.69784],[-118.02433,39.69419],[-118.01961,39.69419],[-118.0149,39.69419],[-118.01499,39.69785],[-118.01509,39.7015],[-118.01518,39.70518],[-118.01528,39.70886],[-118.01981,39.70883]]]]}}]}