{"type":"FeatureCollection","features":[{"type":"Feature","geometry":{"type":"LineString","coordinates":[[-118.13872,39.51514],[-118.13873,39.51551]]},"properties":{"gnis_name":"Dixie Valley Wash","ftype":460,"fcode":46003,"lengthkm":0.043000000000000003}},{"type":"Feature","geometry":{"type":"LineString","coordinates":[[-117.99259,39.53645],[-117.99605,39.53715],[-117.99678,39.53784],[-118.00393,39.53714],[-118.00609,39.53815],[-118.00769,39.53785],[-118.00835,39.53833],[-118.01043,39.53819],[-118.011,39.53889],[-118.01374,39.53938],[-118.01503,39.5404],[-118.01812,39.54141],[-118.02361,39.54196],[-118.0263,39.54504],[-118.02891,39.54632],[-118.03353,39.55029],[-118.03548,39.55098],[-118.03827,39.55315]]},"properties":{"gnis_name":"Sagehen Creek","ftype":460,"fcode":46003,"lengthkm":4.9089999999999998}},{"type":"Feature","geometry":{"type":"LineString","coordinates":[[-118.12352,39.68159],[-118.12415,39.68234],[-118.12316,39.6844],[-118.12353,39.68851],[-118.12318,39.68948],[-118.12217,39.69005],[-118.12193,39.69115],[-118.12232,39.69209],[-118.12108,39.6936]]},"properties":{"gnis_name":"Dixie Valley Wash","ftype":460,"fcode":46003,"lengthkm":1.5640000000000001}},{"type":"Feature","geometry":{"type":"LineString","coordinates":[[-118.13329,39.54717],[-118.13548,39.55444],[-118.13257,39.55992]]},"properties":{"gnis_name":"Dixie Valley Wash","ftype":460,"fcode":46003,"lengthkm":1.52}},{"type":"Feature","geometry":{"type":"LineString","coordinates":[[-118.13385,39.56549],[-118.13583,39.56791],[-118.13691,39.57225],[-118.13897,39.57734],[-118.13934,39.58026],[-118.14043,39.58193],[-118.13979,39.58459]]},"properties":{"gnis_name":"Dixie Valley Wash","ftype":460,"fcode":46003,"lengthkm":2.2789999999999999}},{"type":"Feature","geometry":{"type":"LineString","coordinates":[[-118.15591,39.58365],[-118.15338,39.5847],[-118.14919,39.59441],[-118.14887,39.59646],[-118.14789,39.59721],[-118.14637,39.59753]]},"properties":{"gnis_name":"Freeman Creek","ftype":460,"fcode":46003,"lengthkm":1.8879999999999999}},{"type":"Feature","geometry":{"type":"LineString","coordinates":[[-117.9905,39.52028],[-117.99129,39.52047],[-117.99205,39.51987],[-117.99705,39.52113],[-118.00594,39.52239],[-118.00772,39.52222],[-118.01199,39.52314]]},"properties":{"gnis_name":"Horse Creek","ftype":460,"fcode":46003,"lengthkm":1.9750000000000001}},{"type":"Feature","geometry":{"type":"LineString","coordinates":[[-118.13366,39.63592],[-118.13374,39.63853],[-118.13318,39.63972],[-118.13381,39.646],[-118.1331,39.64714],[-118.13311,39.64858],[-118.13241,39.6492],[-118.13213,39.65156],[-118.13261,39.65276],[-118.13215,39.65381],[-118.13245,39.65551],[-118.13348,39.65752]]},"properties":{"gnis_name":"Dixie Valley Wash","ftype":460,"fcode":46003,"lengthkm":2.625}},{"type":"Feature","geometry":{"type":"LineString","coordinates":[[-118.13348,39.65752],[-118.13351,39.66293],[-118.134,39.66334],[-118.13311,39.66634],[-118.13346,39.66795],[-118.13246,39.67041],[-118.1312,39.67133],[-118.13158,39.67148],[-118.13138,39.67238],[-118.13029,39.67284],[-118.13078,39.67444]]},"properties":{"gnis_name":"Dixie Valley Wash","ftype":460,"fcode":46003,"lengthkm":2.2280000000000002}},{"type":"Feature","geometry":{"type":"LineString","coordinates":[[-118.01199,39.52314],[-118.01295,39.52333]]},"properties":{"gnis_name":"Horse Creek","ftype":460,"fcode":46003,"lengthkm":0.090000000000000011}},{"type":"Feature","geometry":{"type":"LineString","coordinates":[[-118.13829,39.51997],[-118.13728,39.52418],[-118.13559,39.52663],[-118.13445,39.5295]]},"properties":{"gnis_name":"Dixie Valley Wash","ftype":460,"fcode":46003,"lengthkm":1.149}},{"type":"Feature","geometry":{"type":"LineString","coordinates":[[-118.01464,39.5245],[-118.0155,39.52541],[-118.01486,39.52969],[-118.01536,39.53056],[-118.02075,39.53436],[-118.02443,39.53522],[-118.02466,39.53583],[-118.02739,39.53697],[-118.02798,39.53783],[-118.03157,39.53899],[-118.0322,39.53972],[-118.03373,39.53998],[-118.03526,39.54089],[-118.04312,39.5412],[-118.04656,39.54062],[-118.04788,39.53975],[-118.05233,39.53917],[-118.05948,39.53978],[-118.06193,39.53901],[-118.06455,39.54016]]},"properties":{"gnis_name":"Horse Creek","ftype":460,"fcode":46003,"lengthkm":5.6470000000000002}},{"type":"Feature","geometry":{"type":"LineString","coordinates":[[-118.14194,39.61358],[-118.13948,39.61723],[-118.13767,39.6231],[-118.13541,39.62492],[-118.13417,39.62842],[-118.13073,39.63342],[-118.13029,39.63592]]},"properties":{"gnis_name":"Dixie Valley Wash","ftype":460,"fcode":46003,"lengthkm":2.8250000000000002}},{"type":"Feature","geometry":{"type":"LineString","coordinates":[[-118.22553,39.59093],[-118.22275,39.59151],[-118.2186,39.59033],[-118.21371,39.59117],[-118.21148,39.59057],[-118.21011,39.59124],[-118.20641,39.58975],[-118.20016,39.59049],[-118.198,39.59235],[-118.19626,39.59264],[-118.19408,39.59147],[-118.19254,39.59127],[-118.19151,39.58985],[-118.18788,39.58931],[-118.18529,39.5879],[-118.18231,39.58374]]},"properties":{"gnis_name":"Freeman Creek","ftype":460,"fcode":46003,"lengthkm":4.5359999999999996}},{"type":"Feature","geometry":{"type":"LineString","coordinates":[[-118.13882,39.51404],[-118.13872,39.51514]]},"properties":{"gnis_name":"Dixie Valley Wash","ftype":460,"fcode":46003,"lengthkm":0.13700000000000001}},{"type":"Feature","geometry":{"type":"LineString","coordinates":[[-118.18231,39.58374],[-118.17639,39.58244],[-118.17321,39.58266],[-118.16928,39.58198],[-118.15887,39.58248],[-118.15591,39.58365]]},"properties":{"gnis_name":"Freeman Creek","ftype":460,"fcode":46003,"lengthkm":2.3719999999999999}},{"type":"Feature","geometry":{"type":"LineString","coordinates":[[-118.20928,39.65139],[-118.20216,39.65097],[-118.19848,39.6515],[-118.19397,39.65328],[-118.19212,39.65324],[-118.18913,39.65439],[-118.18397,39.65445],[-118.18053,39.65525],[-118.17505,39.65399]]},"properties":{"gnis_name":"Jobs Canyon Wash","ftype":460,"fcode":46003,"lengthkm":3.1600000000000001}},{"type":"Feature","geometry":{"type":"LineString","coordinates":[[-118.13445,39.5295],[-118.13515,39.53207]]},"properties":{"gnis_name":"Dixie Valley Wash","ftype":460,"fcode":46003,"lengthkm":0.29899999999999999}},{"type":"Feature","geometry":{"type":"LineString","coordinates":[[-118.13078,39.67444],[-118.12941,39.67531],[-118.12753,39.67557],[-118.12686,39.67703],[-118.12363,39.67948],[-118.12352,39.68159]]},"properties":{"gnis_name":"Dixie Valley Wash","ftype":460,"fcode":46003,"lengthkm":1.232}},{"type":"Feature","geometry":{"type":"LineString","coordinates":[[-118.20531,39.66385],[-118.19784,39.6627],[-118.19715,39.66207],[-118.19345,39.66148],[-118.1926,39.66191],[-118.19191,39.66148],[-118.18852,39.66159],[-118.18287,39.66263],[-118.17896,39.66174],[-118.17254,39.66316],[-118.16822,39.6626]]},"properties":{"gnis_name":"I X L Canyon Wash","ftype":460,"fcode":46003,"lengthkm":3.395}},{"type":"Feature","geometry":{"type":"LineString","coordinates":[[-118.12108,39.6936],[-118.11891,39.69555],[-118.11826,39.70012]]},"properties":{"gnis_name":"Dixie Valley Wash","ftype":460,"fcode":46003,"lengthkm":0.83300000000000007}},{"type":"Feature","geometry":{"type":"LineString","coordinates":[[-118.01295,39.52333],[-118.01464,39.5245]]},"properties":{"gnis_name":"Horse Creek","ftype":460,"fcode":46003,"lengthkm":0.20000000000000001}},{"type":"Feature","geometry":{"type":"LineString","coordinates":[[-118.13979,39.58459],[-118.14004,39.5884],[-118.14103,39.58993],[-118.14141,39.59237],[-118.14332,39.59644],[-118.14375,39.59932],[-118.14351,39.60081],[-118.14246,39.60257],[-118.14295,39.60584],[-118.14263,39.60739],[-118.14305,39.60806],[-118.14214,39.6117],[-118.14236,39.61246]]},"properties":{"gnis_name":"Dixie Valley Wash","ftype":460,"fcode":46003,"lengthkm":3.2989999999999999}},{"type":"Feature","geometry":{"type":"LineString","coordinates":[[-118.13029,39.63592],[-118.13366,39.63592]]},"properties":{"gnis_name":"Dixie Valley Wash","ftype":336,"fcode":33600,"lengthkm":0.28644015}},{"type":"Feature","geometry":{"type":"LineString","coordinates":[[-118.13515,39.53207],[-118.13544,39.53681]]},"properties":{"gnis_name":"Dixie Valley Wash","ftype":460,"fcode":46003,"lengthkm":0.53600000000000003}},{"type":"Feature","geometry":{"type":"LineString","coordinates":[[-118.14236,39.61246],[-118.14194,39.61358]]},"properties":{"gnis_name":"Dixie Valley Wash","ftype":460,"fcode":46003,"lengthkm":0.13100000000000001}},{"type":"Feature","geometry":{"type":"LineString","coordinates":[[-118.13204,39.56151],[-118.13385,39.56549]]},"properties":{"gnis_name":"Dixie Valley Wash","ftype":460,"fcode":46003,"lengthkm":0.48100000000000004}},{"type":"Feature","geometry":{"type":"LineString","coordinates":[[-118.13463,39.53949],[-118.13541,39.54227],[-118.13461,39.54291],[-118.13324,39.54568],[-118.13329,39.54717]]},"properties":{"gnis_name":"Dixie Valley Wash","ftype":460,"fcode":46003,"lengthkm":0.95200000000000007}},{"type":"Feature","geometry":{"type":"LineString","coordinates":[[-118.14805,39.49801],[-118.14557,39.50104],[-118.14411,39.50205],[-118.14369,39.50356],[-118.14168,39.50546],[-118.14004,39.51223],[-118.13882,39.51404]]},"properties":{"gnis_name":"Dixie Valley Wash","ftype":460,"fcode":46003,"lengthkm":2.069}},{"type":"Feature","geometry":{"type":"LineString","coordinates":[[-118.13257,39.55992],[-118.13204,39.56151]]},"properties":{"gnis_name":"Dixie Valley Wash","ftype":460,"fcode":46003,"lengthkm":0.186}},{"type":"Feature","geometry":{"type":"LineString","coordinates":[[-118.13544,39.53681],[-118.13463,39.53949]]},"properties":{"gnis_name":"Dixie Valley Wash","ftype":460,"fcode":46003,"lengthkm":0.311}},{"type":"Feature","geometry":{"type":"LineString","coordinates":[[-118.13873,39.51551],[-118.13891,39.51861],[-118.13829,39.51997]]},"properties":{"gnis_name":"Dixie Valley Wash","ftype":460,"fcode":46003,"lengthkm":0.52400000000000002}},{"type":"Feature","geometry":{"type":"LineString","coordinates":[[-118.17505,39.65399],[-118.17167,39.65415],[-118.16819,39.65529],[-118.16256,39.6553],[-118.15799,39.65899]]},"properties":{"gnis_name":"Jobs Canyon Wash","ftype":460,"fcode":46003,"lengthkm":1.7170000000000001}}]}