{"type":"FeatureCollection","features":[{"type":"Feature","geometry":{"type":"MultiPolygon","coordinates":[[[[-117.49726,38.88107],[-117.4923,38.87999],[-117.49243,38.86935],[-117.4836,38.86932],[-117.48355,38.86187],[-117.47888,38.86198],[-117.47883,38.87637],[-117.48294,38.87646],[-117.48296,38.88351],[-117.48808,38.88355],[-117.48808,38.88827],[-117.48786,38.90139],[-117.47876,38.90149],[-117.47881,38.905],[-117.48777,38.90496],[-117.48805,38.90647],[-117.48751,38.91196],[-117.48331,38.91198],[-117.48324,38.92293],[-117.478,38.92291],[-117.47787,38.93035],[-117.47313,38.93036],[-117.47309,38.94143],[-117.47768,38.94142],[-117.47768,38.9452],[-117.48217,38.94523],[-117.48216,38.94108],[-117.48714,38.94108],[-117.48698,38.93054],[-117.49187,38.93053],[-117.49303,38.88383],[-117.49717,38.88388],[-117.49726,38.88107]]],[[[-117.40655,39.08873],[-117.40648,39.07141],[-117.39222,39.07155],[-117.39219,39.08212],[-117.38747,39.08218],[-117.38738,39.09704],[-117.38282,39.09709],[-117.38294,39.1044],[-117.37804,39.10437],[-117.37781,39.11485],[-117.37277,39.11477],[-117.37256,39.12222],[-117.3822,39.12213],[-117.38229,39.11504],[-117.38725,39.11501],[-117.38734,39.11121],[-117.39228,39.11125],[-117.39199,39.09678],[-117.39683,39.09679],[-117.39693,39.09319],[-117.40628,39.09329],[-117.40655,39.08873]]],[[[-117.47231,38.99347],[-117.47222,38.97733],[-117.46687,38.97731],[-117.46687,38.98456],[-117.46236,38.98463],[-117.46242,38.99197],[-117.46744,38.99202],[-117.46743,38.99556],[-117.47228,38.99557],[-117.47231,38.99347]]],[[[-117.44449,38.96768],[-117.44445,38.96635],[-117.44003,38.96625],[-117.43999,38.96265],[-117.42662,38.96258],[-117.42664,38.96608],[-117.43558,38.96607],[-117.4356,38.97017],[-117.44009,38.97016],[-117.44011,38.97366],[-117.44447,38.97369],[-117.44449,38.96768]]],[[[-117.42672,38.95912],[-117.41787,38.95846],[-117.41787,38.95462],[-117.40871,38.95466],[-117.40872,38.95843],[-117.41323,38.95842],[-117.41323,38.96257],[-117.42662,38.96258],[-117.42672,38.95912]]],[[[-117.40871,38.95466],[-117.40867,38.9513],[-117.40416,38.95129],[-117.40437,38.94373],[-117.39928,38.94371],[-117.39925,38.95467],[-117.40871,38.95466]]],[[[-117.44197,38.89397],[-117.4418,38.88685],[-117.43263,38.88682],[-117.43269,38.89024],[-117.43726,38.89026],[-117.43733,38.89394],[-117.44197,38.89397]]],[[[-117.46029,38.92096],[-117.4603,38.91536],[-117.45518,38.91539],[-117.45515,38.92303],[-117.46028,38.9229],[-117.46029,38.92096]]],[[[-117.45518,38.91539],[-117.45517,38.91173],[-117.44647,38.91171],[-117.44648,38.91538],[-117.45518,38.91539]]],[[[-117.45355,38.98131],[-117.45353,38.97716],[-117.44915,38.97719],[-117.44913,38.9813],[-117.45355,38.98131]]],[[[-117.44915,38.97719],[-117.44906,38.97363],[-117.44447,38.97369],[-117.44461,38.97714],[-117.44915,38.97719]]],[[[-117.4332,38.87964],[-117.42841,38.87961],[-117.42844,38.88265],[-117.43311,38.88263],[-117.4332,38.87964]]]]},"properties":{"BASENAME":"Yomba","NAME":"Yomba Reservation","AREALAND":"18911931"}},{"type":"Feature","geometry":{"type":"Polygon","coordinates":[[[-119.23627,39.09545],[-119.2362,39.08441],[-119.23221,39.08441],[-119.23216,39.08069],[-119.21841,39.08069],[-119.21847,39.07349],[-119.21395,39.07346],[-119.21379,39.06606],[-119.2092,39.06606],[-119.20921,39.06227],[-119.20078,39.06224],[-119.199,39.06991],[-119.18577,39.07004],[-119.18574,39.08425],[-119.22706,39.0845],[-119.22734,39.09558],[-119.23627,39.09545]]]},"properties":{"BASENAME":"Campbell","NAME":"Campbell Ranch","AREALAND":"6708986"}},{"type":"Feature","geometry":{"type":"Polygon","coordinates":[[[-118.48561,40.17394],[-118.48084,40.17297],[-118.4808,40.1748],[-118.48561,40.17394]]]},"properties":{"BASENAME":"Lovelock","NAME":"Lovelock Indian Colony","AREALAND":"83593"}},{"type":"Feature","geometry":{"type":"Polygon","coordinates":[[[-119.10731,39.15807],[-119.1021,39.15792],[-119.10207,39.1543],[-119.08782,39.15433],[-119.08792,39.15071],[-119.09279,39.15075],[-119.09274,39.14705],[-119.08869,39.14702],[-119.08859,39.1437],[-119.04178,39.14373],[-119.04142,39.13643],[-119.03214,39.13654],[-119.03196,39.12921],[-119.01321,39.12912],[-119.01358,39.1126],[-118.99567,39.11278],[-118.99563,39.08393],[-118.94016,39.08394],[-118.94009,39.06967],[-118.92165,39.06964],[-118.92226,39.01847],[-118.91278,39.0184],[-118.91283,39.01139],[-118.90365,39.01135],[-118.90367,39.00426],[-118.89439,39.00422],[-118.89413,38.98935],[-118.9028,38.98944],[-118.90297,38.98232],[-118.91168,38.98241],[-118.91191,38.97463],[-118.9309,38.97515],[-118.93061,38.96084],[-118.92159,38.96089],[-118.92145,38.95327],[-118.9121,38.95323],[-118.91226,38.93897],[-118.90308,38.93876],[-118.90312,38.93153],[-118.89407,38.93157],[-118.89415,38.92443],[-118.88489,38.92446],[-118.88492,38.91049],[-118.87489,38.91033],[-118.87486,38.90272],[-118.86529,38.90269],[-118.86511,38.88841],[-118.85566,38.88828],[-118.85565,38.88094],[-118.84634,38.88086],[-118.84614,38.87372],[-118.82772,38.87363],[-118.82765,38.86679],[-118.796,38.86651],[-118.796,38.85852],[-118.79183,38.85852],[-118.79055,38.84663],[-118.78197,38.84657],[-118.78128,38.82225],[-118.77203,38.82213],[-118.77191,38.81156],[-118.76725,38.81144],[-118.76731,38.80026],[-118.76304,38.80026],[-118.76301,38.79382],[-118.7583,38.79379],[-118.75821,38.77857],[-118.75338,38.77854],[-118.75316,38.76785],[-118.75117,38.76785],[-118.74617,38.77208],[-118.7402,38.77899],[-118.73072,38.80032],[-118.72546,38.80016],[-118.71678,38.79021],[-118.71167,38.78816],[-118.61974,38.7882],[-118.62022,38.85171],[-118.45845,38.85167],[-118.45919,38.93821],[-118.47784,38.93823],[-118.47769,39.11276],[-118.53321,39.11225],[-118.53332,39.12694],[-118.57033,39.12728],[-118.57018,39.14194],[-118.79274,39.14155],[-118.79241,39.1714],[-118.86732,39.17085],[-118.89915,39.16702],[-118.90283,39.15656],[-118.92141,39.15653],[-118.92152,39.14927],[-118.99613,39.14946],[-118.99614,39.15617],[-119.01342,39.1562],[-119.01351,39.16164],[-119.04124,39.16167],[-119.04112,39.16486],[-119.10728,39.16513],[-119.10731,39.15807]]]},"properties":{"BASENAME":"Walker River","NAME":"Walker River Reservation","AREALAND":"1367747000"}},{"type":"Feature","geometry":{"type":"Polygon","coordinates":[[[-118.76303,39.48569],[-118.76278,39.48222],[-118.75868,39.48223],[-118.75808,39.48732],[-118.76285,39.48738],[-118.76303,39.48569]]]},"properties":{"BASENAME":"Fallon Paiute-Shoshone","NAME":"Fallon Paiute-Shoshone Colony","AREALAND":"220957"}},{"type":"Feature","geometry":{"type":"Polygon","coordinates":[[[-118.65044,39.5331],[-118.65023,39.48951],[-118.59384,39.48982],[-118.5939,39.50058],[-118.58916,39.5005],[-118.5893,39.50441],[-118.59392,39.50439],[-118.59433,39.54111],[-118.58508,39.54076],[-118.58489,39.54861],[-118.58039,39.54866],[-118.58028,39.55549],[-118.63157,39.55503],[-118.63195,39.5332],[-118.65044,39.5331]]]},"properties":{"BASENAME":"Fallon Paiute-Shoshone","NAME":"Fallon Paiute-Shoshone Reservation","AREALAND":"33125605"}},{"type":"Feature","geometry":{"type":"Polygon","coordinates":[[[-119.82949,40.3822],[-119.68752,39.96945],[-119.57916,39.86807],[-119.47798,39.81685],[-119.47799,39.80065],[-119.45818,39.80075],[-119.45823,39.8098],[-119.43732,39.80396],[-119.43726,39.80065],[-119.42555,39.80067],[-119.41672,39.7982],[-119.41667,39.79002],[-119.39647,39.79017],[-119.39639,39.77761],[-119.3904,39.77763],[-119.38228,39.76087],[-119.39607,39.76088],[-119.39607,39.74386],[-119.37892,39.7439],[-119.37892,39.72796],[-119.36648,39.728],[-119.36146,39.71771],[-119.36116,39.7118],[-119.35859,39.7118],[-119.35101,39.69617],[-119.36094,39.69623],[-119.36094,39.68115],[-119.34388,39.68148],[-119.32063,39.63354],[-119.32132,39.62639],[-119.30437,39.61467],[-119.31072,39.61461],[-119.31238,39.61083],[-119.31749,39.60763],[-119.31402,39.60742],[-119.30785,39.6131],[-119.30621,39.61268],[-119.31014,39.61121],[-119.31127,39.60756],[-119.30219,39.60757],[-119.30213,39.6098],[-119.30346,39.60934],[-119.30213,39.6099],[-119.30211,39.6131],[-119.28931,39.60415],[-119.27687,39.62232],[-119.27059,39.6223],[-119.27057,39.62526],[-119.27342,39.62745],[-119.24575,39.66835],[-119.35266,39.87491],[-119.39323,39.96427],[-119.36951,40.04457],[-119.34004,40.15891],[-119.50406,40.36084],[-119.82949,40.3822]]]},"properties":{"BASENAME":"Pyramid Lake Paiute","NAME":"Pyramid Lake Paiute Reservation","AREALAND":"1438777182"}},{"type":"Feature","geometry":{"type":"Polygon","coordinates":[[[-119.17248,38.9803],[-119.16915,38.97944],[-119.16976,38.98296],[-119.17247,38.98208],[-119.17248,38.9803]]]},"properties":{"BASENAME":"Yerington","NAME":"Yerington Colony","AREALAND":"81231"}}]}